Discharger,Discharger_Name,Street,City,State,Zip,latitude,longitude
P204001070,Walgreen's,300 MONTGOMERY ST,SAN FRANCISCO,CA,94104,37.792037,-122.402495
P204001066,The Occidental Grill Cigar Club,471 PINE ST,SAN FRANCISCO,CA,94104,37.791778,-122.403544
P204001065,Starbucks Coffee Company,343 SANSOME ST,SAN FRANCISCO,CA,94104,37.793587,-122.401137
P204001064,Starbucks Coffee Co,369 PINE ST,SAN FRANCISCO,CA,94104,37.791957,-122.40212
P204001063,Starbucks Coffee,555 CALIFORNIA ST,SAN FRANCISCO,CA,94104,37.792798,-122.403492
P204001054,Sandwich Gourmet,530 CALIFORNIA ST,SAN FRANCISCO,CA,94104,37.792861,-122.403207
P204001051,OMNI SF Bob Steak Chop House,500 CALIFORNIA ST,SAN FRANCISCO,CA,94104,37.792919,-122.40283
P204001033,Mandarin Oriental -SILK Restaurant,222 SANSOME ST,SAN FRANCISCO,CA,94104,37.792416,-122.400902
P204001045,Neiman's Cafe,580 CALIFORNIA ST,SAN FRANCISCO,CA,94104,37.792737,-122.404035
P204001043,Murphy's Exchange,451 PINE ST,SAN FRANCISCO,CA,94104,37.791811,-122.403281
P204001042,Mrs. Field Original Cookies Pine St,493 PINE ST,SAN FRANCISCO,CA,94104,37.791707,-122.404041
P204001041,Montgomery Plaza Shop,456 MONTGOMERY ST,SAN FRANCISCO,CA,94104,37.793422,-122.402786
P204001040,Subway (Montgomery),408 MONTGOMERY ST,SAN FRANCISCO,CA,94104,37.793088,-122.40272
P204001024,Krivaar Cafe,475 PINE ST,SAN FRANCISCO,CA,94104,37.791771,-122.403596
P204001015,OMNI SF Hotel Food & Beverage Storeroom,500 CALIFORNIA ST,SAN FRANCISCO,CA,94104,37.792919,-122.40283
P204001013,Fadala Express,50 LEIDESDORFF ST,SAN FRANCISCO,CA,94104,37.792513,-122.401871
P204001010,OMINI SF Hotel  (Employee Cafeteria),500 CALIFORNIA ST,SAN FRANCISCO,CA,94104,37.792919,-122.40283
P204001007,Carnelian Room/Bankers Club,555 CALIFORNIA ST,SAN FRANCISCO,CA,94104,37.792798,-122.403492
P204001004,Krivaar Cafe & Catering,475 PINE ST,SAN FRANCISCO,CA,94104,37.791771,-122.403596
P204000998,"OMINI Hotel SF, Pantry  (3rd Flr)",500 CALIFORNIA ST,SAN FRANCISCO,CA,94104,37.792919,-122.40283
P204000996,"OMNI Hotel SF, Pantry  (2nd Flr)",500 CALIFORNIA ST,SAN FRANCISCO,CA,94104,37.792919,-122.40283
P204001052,"Ritz-Carlton SF., Gift Shop",600 STOCKTON ST,SAN FRANCISCO,CA,94108,37.791437,-122.40734
P204001047,Notre Dame des Victroires,659 PINE ST,SAN FRANCISCO,CA,94108,37.791399,-122.406632
P204001030,The Ritz Carlton Hotel (Cafe),600 STOCKTON ST,SAN FRANCISCO,CA,94108,37.791437,-122.40734
P204001023,GINZA,614 PINE ST,SAN FRANCISCO,CA,94108,37.791478,-122.406081
P204001020,J & W Market,723 PINE ST,SAN FRANCISCO,CA,94108,37.791252,-122.407753
P204001014,Fashion House Inc.,445 GRANT AVE,SAN FRANCISCO,CA,94108,37.791025,-122.405636
P204000542,Cafe Honolulu,888 STOCKTON ST,SAN FRANCISCO,CA,94108,37.793913,-122.407813
P204000540,Fung Yun Wah,868 JACKSON ST,SAN FRANCISCO,CA,94108,37.795682,-122.409475
P204000538,M.P. Seafood Market,848 JACKSON ST,SAN FRANCISCO,CA,94108,37.795731,-122.409112
P204000537,Chinese Hospital,845 JACKSON ST,SAN FRANCISCO,CA,94108,37.795707,-122.409176
P204000535,Goldetn Mountain Market,846 JACKSON ST,SAN FRANCISCO,CA,94108,37.795743,-122.409001
P204000534,New Ocean Seafood & Produce,838 JACKSON ST,SAN FRANCISCO,CA,94108,37.795755,-122.408907
P204000533,Hang Seng Meat Market,834 JACKSON ST,SAN FRANCISCO,CA,94108,37.795761,-122.408857
P204000532,J C. Market,830 JACKSON ST,SAN FRANCISCO,CA,94108,37.795767,-122.408806
P204000531,Chinatown Medical Pharmacy,823 JACKSON ST,SAN FRANCISCO,CA,94108,37.795774,-122.408599
P204000527,Cable Car Corner,1099 POWELL ST,SAN FRANCISCO,CA,94108,37.794648,-122.40968
P204000525,Navin Thai Restaurant,1059 POWELL ST,SAN FRANCISCO,CA,94108,37.79437,-122.409629
P204000524,JR New Orange Lang,1055 STOCKTON ST,SAN FRANCISCO,CA,94108,37.795422,-122.40814
P204000520,Tai Cheong Ginseng,1043 STOCKTON ST,SAN FRANCISCO,CA,94108,37.795338,-122.408121
P204000518,"Kang Jua Trading, Inc.",1040 STOCKTON ST,SAN FRANCISCO,CA,94108,37.79534,-122.408102
P204000516,Yue Fung Grocery,1037 STOCKTON ST,SAN FRANCISCO,CA,94108,37.795297,-122.408112
P204000515,Hop Hing Ginseng Co.,1027 STOCKTON ST,SAN FRANCISCO,CA,94108,37.795227,-122.408097
P204000514,Mandarin Delight,1024 STOCKTON ST,SAN FRANCISCO,CA,94108,37.795229,-122.408078
P204000513,Tai Sang Co,1018 STOCKTON ST,SAN FRANCISCO,CA,94108,37.795187,-122.408069
P204000564,Chinatown Community Childcare,979 CLAY ST,SAN FRANCISCO,CA,94108,37.79392,-122.409108
P204000563,Gordon J. Lau Elementary School,950 CLAY ST,SAN FRANCISCO,CA,94108,37.79398,-122.40875
P204000561,Commodore Stockton Child Development,949 WASHINGTON ST,SAN FRANCISCO,CA,94108,37.794821,-122.409032
P204000558,San Sun Restaurant,941 STOCKTON ST,SAN FRANCISCO,CA,94108,37.794443,-122.407934
P204000557,Little Paris (Stockton St),939 STOCKTON ST,SAN FRANCISCO,CA,94108,37.794429,-122.407931
P204000555,You's Dim Sum Restaurantn (Stockton St0,937 STOCKTON ST,SAN FRANCISCO,CA,94108,37.794414,-122.407928
P204000554,Fong Bros. Dist. Co. Inc.,935 STOCKTON ST,SAN FRANCISCO,CA,94108,37.7944,-122.407925
P204000553,Fortune Star Cafe,930 STOCKTON ST,SAN FRANCISCO,CA,94108,37.794388,-122.407904
P204000552,Long Hua's Grocery Store,906 STOCKTON ST,SAN FRANCISCO,CA,94108,37.794217,-122.407869
P204000548,Gum Lee Liquor,903 STOCKTON ST,SAN FRANCISCO,CA,94108,37.794172,-122.407879
P204000546,"Stockton Seafood Center, Inc",900 STOCKTON ST,SAN FRANCISCO,CA,94108,37.794174,-122.40786
P204000545,Wing Scene Food Inc.,898 STOCKTON ST,SAN FRANCISCO,CA,94108,37.793983,-122.407825
P204000543,New W. Scene Food Co,894 STOCKTON ST,SAN FRANCISCO,CA,94108,37.793955,-122.40782
P204000594,Washington Bakery & Restaurant,733 WASHINGTON ST,SAN FRANCISCO,CA,94108,37.795216,-122.405872
P204000580,Grant Place,737 WASHINGTON ST,SAN FRANCISCO,CA,94108,37.795211,-122.40592
P208006491,SLIDERS  (Sutter),1202 SUTTER ST,SAN FRANCISCO,CA,94109,37.787742,-122.42031
P208006481,U-Lee Restaurant,1468 HYDE ST,SAN FRANCISCO,CA,94109,37.794265,-122.418042
P209006696,DUNYA (Meditteranean Cuisine),1609 POLK ST,SAN FRANCISCO,CA,94109,37.791645,-122.420908
P208006145,SAMBA ROOMS RESTAURANTS & PIZZA,993 NORTH POINT ST,SAN FRANCISCO,CA,94109,37.805325,-122.423375
P207006002,Pita's Cafe,1380 SUTTER ST,SAN FRANCISCO,CA,94109,37.787403,-122.423014
P212008388,FRESCO Pizza & Grill,1338 POLK ST,SAN FRANCISCO,CA,94109,37.789257,-122.420403
P208006492,Cafe Zitouna,1201 SUTTER ST,SAN FRANCISCO,CA,94109,37.787729,-122.420268
P212008379,PIZZA PINNO Kitchen,1534 CALIFORNIA ST,SAN FRANCISCO,CA,94109,37.790714,-122.41967
P212008378,OLEA Restaurant,1494 CALIFORNIA ST,SAN FRANCISCO,CA,94109,37.790826,-122.418817
P207006046,RISTORANTE MILANO,1448 PACIFIC AVE,SAN FRANCISCO,CA,94109,37.79538,-122.419042
P209006948,Super Burrito,1200 POLK ST,SAN FRANCISCO,CA,94109,37.787817,-122.420102
P209006796,THE ORIGINAL FRONT ROOM,1550 CALIFORNIA ST,SAN FRANCISCO,CA,94109,37.790686,-122.41988
P209006795,CRUSTACEAN Restaurant,1475 POLK ST,SAN FRANCISCO,CA,94109,37.790283,-122.420633
P210007458,SEVEN HILLS,1550 HYDE ST,SAN FRANCISCO,CA,94109,37.795025,-122.418203
P210007210,ALCATRAZ PIZZA  (NorthPoint),977 NORTH POINT ST,SAN FRANCISCO,CA,94109,37.805352,-122.423165
P209006697,SUSHI ROCK,1608 POLK ST,SAN FRANCISCO,CA,94109,37.791661,-122.420892
P211007653,Le Petit Marchet,1732 POLK ST,SAN FRANCISCO,CA,94109,37.792715,-122.421103
P209006945,Miconos,1431 POLK ST,SAN FRANCISCO,CA,94109,37.789956,-122.42057
P209006944,Victor's Pizzeria & Restaurant,1411 POLK ST,SAN FRANCISCO,CA,94109,37.789807,-122.420541
P209006888,HOUSE OF PRIME RIB,1906 VAN NESS AVE,SAN FRANCISCO,CA,94109,37.793222,-122.422831
P209006905,CHAI-YO  (Thai Noodle),1331 POLK ST,SAN FRANCISCO,CA,94109,37.789197,-122.420409
P209006904,DARBAR Restaurant,1412 POLK ST,SAN FRANCISCO,CA,94109,37.789838,-122.420528
P209006902,New Village Cafe,1426 POLK ST,SAN FRANCISCO,CA,94109,37.789942,-122.420548
P209006901,Bamboo Restaurant (Polk St),1441 POLK ST,SAN FRANCISCO,CA,94109,37.79003,-122.420584
P210007523,MY MY COFFEE Shop,1500 CALIFORNIA ST,SAN FRANCISCO,CA,94109,37.790774,-122.419224
P210007302,AICHA (Morrocon Cuisine),1303 POLK ST,SAN FRANCISCO,CA,94109,37.788765,-122.420323
P209006694,BELL TOWER (Bar and Restaurant),1900 POLK ST,SAN FRANCISCO,CA,94109,37.794244,-122.421402
P212008226,SUN KWONG RESTAURANT,1400 JACKSON ST,SAN FRANCISCO,CA,94109,37.794545,-122.418295
P207005204,Wayo Restaurant,1407 VAN NESS AVE,SAN FRANCISCO,CA,94109,37.788629,-122.422076
P207005203,Alborz Restaurant,1245 VAN NESS AVE,SAN FRANCISCO,CA,94109,37.787169,-122.421778
P207005200,KYOTO SUSHI,1233 VAN NESS AVE,SAN FRANCISCO,CA,94109,37.787005,-122.421745
P212008266,RISTORANTE TI PIACERA,1507 POLK ST,SAN FRANCISCO,CA,94109,37.790707,-122.420717
P207005985,Gourmet Carousel,1559 FRANKLIN ST,SAN FRANCISCO,CA,94109,37.788941,-122.423733
P207005982,Pacific Plaza Cafe,1340 FRANKLIN ST,SAN FRANCISCO,CA,94109,37.786814,-122.42327
P209006661,LA PARILLLA GRILL (Polk St),1760 POLK ST,SAN FRANCISCO,CA,94109,37.79291,-122.421141
P209006660,AMELIE WINE BAR & CUISINE,1754 POLK ST,SAN FRANCISCO,CA,94109,37.792868,-122.421133
P209006659,THAI SPICE (Thai Cuisine),1730 POLK ST,SAN FRANCISCO,CA,94109,37.792701,-122.4211
P209006658,HAHN'S HIBACHI (Polk St),1710 POLK ST,SAN FRANCISCO,CA,94109,37.792562,-122.421073
P207005892,1101 Polk,1101 POLK ST,SAN FRANCISCO,CA,94109,37.786888,-122.419918
P207006036,Ah Lin Restaurant,1634 BUSH ST,SAN FRANCISCO,CA,94109,37.788208,-122.424218
P208006258,Bob's Broiler,1601 POLK ST,SAN FRANCISCO,CA,94109,37.791588,-122.420896
P208006534,"Grubstake, The",1525 PINE ST,SAN FRANCISCO,CA,94109,37.789566,-122.420971
P207006010,Pacific Food Mart,2199 SUTTER ST,SAN FRANCISCO,CA,94109,37.785686,-122.436372
P207004792,NAPOLI PIZZA RESTAURANT,1045 POLK ST,SAN FRANCISCO,CA,94109,37.786469,-122.419853
P209006695,PANCHO SALSA (Bar and Grill),1639 POLK ST,SAN FRANCISCO,CA,94109,37.791859,-122.420951
P208006302,Cordon Bleu Restaurant,1574 CALIFORNIA ST,SAN FRANCISCO,CA,94109,37.790644,-122.420195
P207006004,"Broadmoor, The",1499 SUTTER ST,SAN FRANCISCO,CA,94109,37.787155,-122.424854
P207006001,Macha Cafe,1355 SUTTER ST,SAN FRANCISCO,CA,94109,37.787425,-122.422673
P207005950,The Carlisle,1450 POST ST,SAN FRANCISCO,CA,94109,37.786095,-122.425695
P209006949,Modern Thai Restaurant,1247 POLK ST,SAN FRANCISCO,CA,94109,37.788359,-122.420233
P209006801,Ruth's Chris Steak House,1601 VAN NESS AVE,SAN FRANCISCO,CA,94109,37.790442,-122.422435
P209006800,Whole Foods Market - California,1777 CALIFORNIA ST,SAN FRANCISCO,CA,94109,37.790206,-122.423518
P207005202,Village Pizzeria,1243 VAN NESS AVE,SAN FRANCISCO,CA,94109,37.787158,-122.421776
P211007670,Crepes Oh La La (Polk St.),1220 POLK ST,SAN FRANCISCO,CA,94109,37.788065,-122.42015
P211007778,The Chameleon,1299 PACIFIC AVE,SAN FRANCISCO,CA,94109,37.795695,-122.416454
P211007662,YamaSho,1161 POST ST,SAN FRANCISCO,CA,94109,37.786704,-122.420849
P211007659,Swan's Oyster Depot,1517 POLK ST,SAN FRANCISCO,CA,94109,37.790781,-122.420732
P211007658,Star Bagels,1475 POLK ST,SAN FRANCISCO,CA,94109,37.790283,-122.420633
P211007657,Shalimar (Polk),1409 POLK ST,SAN FRANCISCO,CA,94109,37.789792,-122.420538
P211007656,Toast Eatery (Polk),1601 POLK ST,SAN FRANCISCO,CA,94109,37.791588,-122.420896
P211007654,Lotta's Bakery,1720 POLK ST,SAN FRANCISCO,CA,94109,37.792631,-122.421087
P211007652,It's a Grind Coffee House,1800 POLK ST,SAN FRANCISCO,CA,94109,37.793363,-122.421229
P211007651,Donuts and Things,1549 POLK ST,SAN FRANCISCO,CA,94109,37.79102,-122.42078
P211007949,Eleven 0 One,1101 POLK ST,SAN FRANCISCO,CA,94109,37.786888,-122.419918
P211007950,Royal Ground Coffee (Polk),1605 POLK ST,SAN FRANCISCO,CA,94109,37.791617,-122.420902
P209006954,Nara Sushi Restaurant,1515 POLK ST,SAN FRANCISCO,CA,94109,37.790767,-122.420729
P211007771,Baker and Banker,1701 OCTAVIA ST,SAN FRANCISCO,CA,94109,37.787946,-122.426897
P211007956,Pannini,1457 HAIGHT ST,SAN FRANCISCO,CA,94109,37.770085,-122.446214
P212008209,Fourth Wave Coffee,1365 POLK ST,SAN FRANCISCO,CA,94109,37.789387,-122.420452
P207005983,Franklin Market,1528 FRANKLIN ST,SAN FRANCISCO,CA,94109,37.788673,-122.423658
P207005900,Quetzal Internet Cafe,1230 POLK ST,SAN FRANCISCO,CA,94109,37.788271,-122.420193
P207005899,Discount Grocers,1203 POLK ST,SAN FRANCISCO,CA,94109,37.787839,-122.420124
P207005895,Wing Lum Cafe,1150 POLK ST,SAN FRANCISCO,CA,94109,37.78745,-122.420017
P208006530,HILLSTONE Restaurant,1800 MONTGOMERY ST,SAN FRANCISCO,CA,94111,37.80567,-122.405344
P212008315,HILLSTONE Restaurant,1800 MONTGOMERY ST,SAN FRANCISCO,CA,94111,37.80567,-122.405344
P204001079,Banana Best (Thai Restaurant),556 COMMERCIAL ST,SAN FRANCISCO,CA,94111,37.794297,-122.402397
P204001073,Zare,568 SACRAMENTO ST,SAN FRANCISCO,CA,94111,37.793862,-122.402472
P204001055,Self Help for the Elderly,407 SANSOME ST,SAN FRANCISCO,CA,94111,37.794097,-122.401254
P204001027,London Wine Bar,415 SANSOME ST,SAN FRANCISCO,CA,94111,37.794148,-122.401264
P204001025,Lee's Deli (Sansome St.),475 SANSOME ST,SAN FRANCISCO,CA,94111,37.794637,-122.401362
P204001021,Jamba Juice (Sansome),450 SANSOME ST,SAN FRANCISCO,CA,94111,37.794472,-122.401311
P204001018,Healow's Flowers,475 SANSOME ST,SAN FRANCISCO,CA,94111,37.794637,-122.401362
P204001012,EZ5 Inc.,684 COMMERCIAL ST,SAN FRANCISCO,CA,94111,37.794074,-122.404322
P204001001,Alpenglo Tea & Coffee,401 SANSOME ST,SAN FRANCISCO,CA,94111,37.794066,-122.401246
P204001000,A Roma,450 SANSOME ST,SAN FRANCISCO,CA,94111,37.794472,-122.401311
P204000785,Fog City Diner,1300 BATTERY ST,SAN FRANCISCO,CA,94111,37.803328,-122.401971
P207004540,CCSF Culinary Arts and Hospitality,50 PHELAN AVE,SAN FRANCISCO,CA,94112,37.723635,-122.452336
P207004842,California Book Company,11 PHELAN AVE,SAN FRANCISCO,CA,94112,37.723282,-122.452343
P207004841,OCEAN QUICKLY,1039 OCEAN AVE,SAN FRANCISCO,CA,94112,37.723353,-122.453537
P207004840,City College of SF Lunch Box,50 PHELAN AVE,SAN FRANCISCO,CA,94112,37.723635,-122.452336
P207004839,Vikings Giant Submarine,1300 OCEAN AVE,SAN FRANCISCO,CA,94112,37.724004,-122.456611
P207004838,Spitfire Rose,1790 SAN JOSE AVE,SAN FRANCISCO,CA,94112,37.729105,-122.439868
P207004731,Happy Bakery & Deli (Ocean),1548 OCEAN AVE,SAN FRANCISCO,CA,94112,37.724501,-122.45906
P207004730,Archbishop Riordan HS Cafeteria,175 PHELAN AVE,SAN FRANCISCO,CA,94112,37.727395,-122.452387
P207004728,WANG WAH (Golden China Restaurant ),1612 OCEAN AVE,SAN FRANCISCO,CA,94112,37.724614,-122.459558
P207004727,Ocean Pizza Restaurant,1443 OCEAN AVE,SAN FRANCISCO,CA,94112,37.72421,-122.457736
P207004726,McDONALD'S (Ocean Ave),1201 OCEAN AVE,SAN FRANCISCO,CA,94112,37.723713,-122.455257
P207004725,CITY COLLEGE CAFE,50 PHELAN AVE,SAN FRANCISCO,CA,94112,37.723635,-122.452336
P207004724,De Rosario Restaurant,1796 SAN JOSE AVE,SAN FRANCISCO,CA,94112,37.729028,-122.439993
P207004722,JO JO'S CAFE,1537 OCEAN AVE,SAN FRANCISCO,CA,94112,37.724395,-122.458629
P207004720,El Jalapeno Restaurant,1338 OCEAN AVE,SAN FRANCISCO,CA,94112,37.724118,-122.457192
P207004719,HANG FOOK  Bakery & Restaurant,1325 OCEAN AVE,SAN FRANCISCO,CA,94112,37.723994,-122.45666
P207004846,Super Crown Catering,50 PHELAN AVE,SAN FRANCISCO,CA,94112,37.723635,-122.452336
P207004845,SF Community College Bookstore,50 PHELAN AVE,SAN FRANCISCO,CA,94112,37.723635,-122.452336
P207004844,Bach Catering,116 MIRAMAR AVE,SAN FRANCISCO,CA,94112,37.720447,-122.458171
P207004723,A-1 BAKERY,1727 OCEAN AVE,SAN FRANCISCO,CA,94112,37.724812,-122.46056
P211007900,MAMA MIA Pizzeria,1125 OCEAN AVE,SAN FRANCISCO,CA,94112,37.723545,-122.454419
P207004754,SEA GARDEN Restaurant,1540 OCEAN AVE,SAN FRANCISCO,CA,94112,37.724477,-122.458937
P207004721,The Mayflower,1422 OCEAN AVE,SAN FRANCISCO,CA,94112,37.724199,-122.457592
P207004538,BEEP'S BURGER,1051 OCEAN AVE,SAN FRANCISCO,CA,94112,37.723374,-122.45363
P207004539,CAFFE D' MELANIO,1314 OCEAN AVE,SAN FRANCISCO,CA,94112,37.724055,-122.456874
P211007866,San Francisco MEATS & Delicatessen,1330 OCEAN AVE,SAN FRANCISCO,CA,94112,37.724114,-122.457181
P207004847,Sunnyside Elementary School,250 FOERSTER ST,SAN FRANCISCO,CA,94112,37.730302,-122.448861
P206003063,Excelsior Chinese Foods,4845 MISSION ST,SAN FRANCISCO,CA,94112,37.720824,-122.437737
P209006968,LUNCH BOX AT CCSF,50 PHELAN AVE,SAN FRANCISCO,CA,94112,37.723635,-122.452336
P209006966,LUNCH BOX,50 PHELAN AVE,SAN FRANCISCO,CA,94112,37.723635,-122.452336
P206003068,Buena Suerte Market & Cafe,4995 MISSION ST,SAN FRANCISCO,CA,94112,37.718683,-122.439356
P206003065,P K Produce Market,4929 MISSION ST,SAN FRANCISCO,CA,94112,37.719517,-122.438733
P206003064,SUPER STAR Restaurant,4919 MISSION ST,SAN FRANCISCO,CA,94112,37.719644,-122.438638
P206003076,Da Kines' Hawaiian BBQ,4808 MISSION ST,SAN FRANCISCO,CA,94112,37.720969,-122.437653
P206003074,Jack's Grocery,700 NAPLES ST,SAN FRANCISCO,CA,94112,37.71758,-122.433704
P206003073,Epiphany Elementary,600 ITALY AVE,SAN FRANCISCO,CA,94112,37.716131,-122.434671
P206003072,Slavonic Cultural Center,60 ONONDAGA AVE,SAN FRANCISCO,CA,94112,37.72169,-122.438784
P206003070,Gabriella Muselli Catering,5051 MISSION ST,SAN FRANCISCO,CA,94112,37.717745,-122.440052
P206003058,Frank's Market & Liquor,4799? MISSION ST,SAN FRANCISCO,CA,94112,37.721663,-122.437095
P206003055,The New California Produce,4791 MISSION ST,SAN FRANCISCO,CA,94112,37.721761,-122.437021
P206003053,La Loma Produce #6,4788 MISSION ST,SAN FRANCISCO,CA,94112,37.721405,-122.437319
P206003050,Cafe Mama,4754 MISSION ST,SAN FRANCISCO,CA,94112,37.722068,-122.436818
P206003049,Italian American Social Club,25 RUSSIA AVE,SAN FRANCISCO,CA,94112,37.721467,-122.436928
P210007246,HA TIEN HUT,1109 OCEAN AVE,SAN FRANCISCO,CA,94112,37.723518,-122.454286
P207004759,OCEAN CAFE Restaurant,1031 OCEAN AVE,SAN FRANCISCO,CA,94112,37.723339,-122.453475
P206002959,VENICE PIZZA AND RESTAURANT,5228 MISSION ST,SAN FRANCISCO,CA,94112,37.715241,-122.441997
P211007738,Don Pisto Restaurants LLC,510 UNION ST,SAN FRANCISCO,CA,94113,37.800616,-122.407774
P208006568,24th Street Cafe,3853 24TH ST,SAN FRANCISCO,CA,94114,37.751622,-122.428692
P207004132,Lupa Trattoria,4109 24TH ST,SAN FRANCISCO,CA,94114,37.751268,-122.434445
P207004131,Mi Lindo Yucatan (24th St),4042 24TH ST,SAN FRANCISCO,CA,94114,37.75138,-122.432854
P207004125,Hahn's Hibachi (Castro St),1305 CASTRO ST,SAN FRANCISCO,CA,94114,37.751185,-122.434051
P207004124,Bacco Restaurant,737 DIAMOND ST,SAN FRANCISCO,CA,94114,37.751663,-122.436333
P209006908,POMODORO (24th St),4000 24TH ST,SAN FRANCISCO,CA,94114,37.751424,-122.432115
P210007386,CHAN CHAN,4690 18TH ST,SAN FRANCISCO,CA,94114,37.7604,-122.443119
P210007387,HAHN'S HIBACHI (Castro),1305 CASTRO ST,SAN FRANCISCO,CA,94114,37.751185,-122.434051
P210007236,PASTAGINA,741 DIAMOND ST,SAN FRANCISCO,CA,94114,37.751637,-122.436331
P207004118,Cafe Ponte,751 DIAMOND ST,SAN FRANCISCO,CA,94114,37.751571,-122.436325
P206003971,QUEEN MALIKA,4416 18TH ST,SAN FRANCISCO,CA,94114,37.760681,-122.43852
P211007777,La Boulange de Fillmore,2043 FILLMORE ST,SAN FRANCISCO,CA,94114,37.788374,-122.433721
P208006553,DINO'S PIZZA & DINING,2101 FILLMORE ST,SAN FRANCISCO,CA,94115,37.789002,-122.433848
P208006551,PIZZERIA DELFINA (California St),2406 CALIFORNIA ST,SAN FRANCISCO,CA,94115,37.788887,-122.434088
P208006550,CURBSIDE CAFE,2417 CALIFORNIA ST,SAN FRANCISCO,CA,94115,37.788855,-122.434205
P208006549,LA SALSA #85,2401 CALIFORNIA ST,SAN FRANCISCO,CA,94115,37.78888,-122.433991
P208006548,KFC #247 (Geary Bl),1881 GEARY BLVD,SAN FRANCISCO,CA,94115,37.784047,-122.434093
P208006475,JOHNNY ROCKETS  (Fillmore St),1946 FILLMORE ST,SAN FRANCISCO,CA,94115,37.787684,-122.433561
P208006474,2001 THAI STICK RESTAURANT,2001 FILLMORE ST,SAN FRANCISCO,CA,94115,37.788055,-122.433658
P208006468,FILLMORE MEXICAN GRILL (Fillmore),1552 FILLMORE ST,SAN FRANCISCO,CA,94115,37.783781,-122.432795
P208006467,HAPPY HOUSE (Fillmore),1560 FILLMORE ST,SAN FRANCISCO,CA,94115,37.783841,-122.432807
P208006466,Quickly - Fillmore,1522 FILLMORE ST,SAN FRANCISCO,CA,94115,37.783555,-122.432752
P207004947,SEOUL GARDEN RESTAURANT,22 PEACE PLZ,SAN FRANCISCO,CA,94115,37.785139,-122.429639
P207004945,SAPPORO-YA,1581 WEBSTER ST,SAN FRANCISCO,CA,94115,37.785227,-122.431411
P207004673,HAPPY SHABU SHABU,1401 FILLMORE ST,SAN FRANCISCO,CA,94115,37.782451,-122.432548
P207004970,TANPOPO,1740 BUCHANAN ST,SAN FRANCISCO,CA,94115,37.785931,-122.429831
P207004964,SUZU NOODLE HOUSE,1581 WEBSTER ST,SAN FRANCISCO,CA,94115,37.785227,-122.431411
P208006334,My Father's Kitchen,1655 DIVISADERO ST,SAN FRANCISCO,CA,94115,37.78481,-122.43978
P207006009,Neecha Thai Cuisine,2100 SUTTER ST,SAN FRANCISCO,CA,94115,37.785874,-122.435086
P207004949,SHABU - SEN,1726 BUCHANAN ST,SAN FRANCISCO,CA,94115,37.78583,-122.429808
P207004905,RASSELAS Jazz Club & Restaurant,1534 FILLMORE ST,SAN FRANCISCO,CA,94115,37.783645,-122.432769
P207004589,ARANG Korean  Restaurant,1506 FILLMORE ST,SAN FRANCISCO,CA,94115,37.783435,-122.432729
P207005084,YAKINIKU HOUSE JUBAN,1581 WEBSTER ST,SAN FRANCISCO,CA,94115,37.785227,-122.431411
P207005241,Kiss Seafood,1700 LAGUNA ST,SAN FRANCISCO,CA,94115,37.786828,-122.428343
P207004775,MCDONALD'S (Fillmore St) #10162,1100 FILLMORE ST,SAN FRANCISCO,CA,94115,37.779668,-122.431952
P207004771,MAKI RESTAURANT,1825 POST ST  215,SAN FRANCISCO,CA,94115,37.785304,-122.431838
P207004766,KUSHI TSURU Restaurant,1737 POST ST,SAN FRANCISCO,CA,94115,37.785503,-122.430298
P207004764,KUI SHIN BO,22 PEACE Plaza,SAN FRANCISCO,CA,94115,37.785139,-122.429639
P207004704,KING LEE'S Restaurant,1426-A FILLMORE ST,SAN FRANCISCO,CA,94115,37.782659,-122.432571
P207004693,JITLADA THAI CUISINE,1826 BUCHANAN ST,SAN FRANCISCO,CA,94115,37.786812,-122.430025
P207004685,IROHA,1728 BUCHANAN ST,SAN FRANCISCO,CA,94115,37.785845,-122.429811
P207004683,INDIA PALACE,1740 FILLMORE ST,SAN FRANCISCO,CA,94115,37.785566,-122.433152
P207004831,PRIDE OF THE MEDITERRANEAN,1761 FILLMORE ST,SAN FRANCISCO,CA,94115,37.785699,-122.433199
P207004828,POPEYE'S FAMOUS FRIED CHICKEN (Fillmore St),1426 FILLMORE ST,SAN FRANCISCO,CA,94115,37.782659,-122.432571
P207004826,PIZZA INFERNO Restaurant & Bar,1800 FILLMORE ST,SAN FRANCISCO,CA,94115,37.786201,-122.43328
P207004815,PANDA EXPRESS #1480 (Fillmore St),1480 FILLMORE ST,SAN FRANCISCO,CA,94115,37.783056,-122.432653
P207004809,ON THE BRIDGE,1581 WEBSTER ST,SAN FRANCISCO,CA,94115,37.785227,-122.431411
P212008366,STATE BIRD PROVISIONS,1529 FILLMORE ST,SAN FRANCISCO,CA,94115,37.783584,-122.432777
P209007004,Minny's Restaurant,1700 POST ST,SAN FRANCISCO,CA,94115,37.785575,-122.429866
P209006936,VIA VENETO,2244 FILLMORE ST,SAN FRANCISCO,CA,94115,37.790253,-122.434084
P209006935,CHOUQUET'S RESTAURANT,2500 WASHINGTON ST,SAN FRANCISCO,CA,94115,37.791585,-122.434555
P210007429,GUSSIE'S CHICKEN & WAFFLES,1521 EDDY ST,SAN FRANCISCO,CA,94115,37.781356,-122.432751
P210007428,HEUNGBUNE Korean Restaurant,1560 FILLMORE ST,SAN FRANCISCO,CA,94115,37.783841,-122.432807
P208006495,YOSHIE'S,1330 FILLMORE ST,SAN FRANCISCO,CA,94115,37.781755,-122.432381
P207004707,KOJI OSAKA YA,1737 POST ST,SAN FRANCISCO,CA,94115,37.785503,-122.430298
P207004654,FILLMORE STREET CAFÉ,1301 FILLMORE ST,SAN FRANCISCO,CA,94115,37.781514,-122.432349
P210007417,MOLLIE STONE'S DELI #2 (Calif),2435 CALIFORNIA ST,SAN FRANCISCO,CA,94115,37.788826,-122.434446
P207004651,EXTREME PIZZA (Fillmore),1730 FILLMORE ST,SAN FRANCISCO,CA,94115,37.785492,-122.433137
P209006998,DOO-BU (Korean & Tofu Restaurant),1723 BUCHANAN ST,SAN FRANCISCO,CA,94115,37.785785,-122.429817
P209006997,MIIYAKO,1707 BUCHANAN ST,SAN FRANCISCO,CA,94115,37.78567,-122.42979
P209006996,MINNY'S RESTAURANT,1700 POST ST,SAN FRANCISCO,CA,94115,37.785575,-122.429866
P210007450,GEARY DRIVE-IN (Tony's Cable Car),2500 GEARY BLVD,SAN FRANCISCO,CA,94115,37.782772,-122.444628
P210007398,1300 ON FILLMORE,1300 FILLMORE ST,SAN FRANCISCO,CA,94115,37.78153,-122.432333
P209006951,CREPEVINE (Fillmore St),2301 FILLMORE ST,SAN FRANCISCO,CA,94115,37.790807,-122.434216
P207005082,WOO RI FOOD MARKET,1528 FILLMORE ST,SAN FRANCISCO,CA,94115,37.7836,-122.432761
P207004781,MIFUNE DON,22 PEACE PLZ,SAN FRANCISCO,CA,94115,37.785139,-122.429639
P207004969,TAKARA RESTAURANT,22 PEACE PLZ,SAN FRANCISCO,CA,94115,37.785139,-122.429639
P209006862,WOODHOUSE Fish Co. (Fillmore St),1914 FILLMORE ST,SAN FRANCISCO,CA,94115,37.787423,-122.433509
P209006849,SANUKI UDON,22 PEACE PLZ,SAN FRANCISCO,CA,94115,37.785139,-122.429639
P212008288,SODINI'S Restaurant,510 GREEN ST,SAN FRANCISCO,CA,94115,37.799691,-122.407525
P209006980,BRUNO'S Pizzeria,1375 FILLMORE ST,SAN FRANCISCO,CA,94115,37.78207,-122.432467
P208006473,FLORIO Bar & Cafe,1915 FILLMORE ST,SAN FRANCISCO,CA,94115,37.787541,-122.433548
P212008339,HOLY DOG,1552 FILLMORE ST,SAN FRANCISCO,CA,94115,37.783781,-122.432795
P212008255,MIFUNE BISTRO,1581 WEBSTER ST,SAN FRANCISCO,CA,94115,37.785227,-122.431411
P212008396,PRIME DIP (Fillmore St),1515 FILLMORE ST,SAN FRANCISCO,CA,94115,37.783479,-122.432757
P212008383,PAI'NA,1865 POST ST,SAN FRANCISCO,CA,94115,37.78522,-122.432533
P207004616,CAFE MUMS,1800 SUTTER ST,SAN FRANCISCO,CA,94115,37.786497,-122.430148
P207004609,BURGER KING #4525 (Fillmore St),1701 FILLMORE ST,SAN FRANCISCO,CA,94115,37.785252,-122.433108
P208006341,PREET PALACE Indian Cuisine & Pizza,1109 FILLMORE ST,SAN FRANCISCO,CA,94115,37.779712,-122.43198
P209006757,OSAKAYA  (Japanese Cuisine),1737 POST ST,SAN FRANCISCO,CA,94115,37.785503,-122.430298
P209006755,ISUMIYA,1581 WEBSTER ST,SAN FRANCISCO,CA,94115,37.785227,-122.431411
P209006708,Shin Toe (Korean Restaurant),2001 TARAVAL ST,SAN FRANCISCO,CA,94115,37.742517,-122.487595
P207005081,WON MI KOREAN RESTAURANT,1545 FILLMORE ST,SAN FRANCISCO,CA,94115,37.783704,-122.4328
P207004943,SAN WANG RESTAURANT,1682 POST ST,SAN FRANCISCO,CA,94115,37.78564,-122.429389
P207004678,HONEY BAKED,2190 GEARY BLVD,SAN FRANCISCO,CA,94115,37.783398,-122.439297
P207004800,NIJIYA MARKET,1737 POST ST,SAN FRANCISCO,CA,94115,37.785503,-122.430298
P207004991,TORAYA,1734 POST ST,SAN FRANCISCO,CA,94115,37.785522,-122.430289
P207004972,TAN-TAN,1825 POST ST,SAN FRANCISCO,CA,94115,37.785304,-122.431838
P207004960,SUGAR BOWL (Geary),2238 GEARY BLVD,SAN FRANCISCO,CA,94115,37.783281,-122.440167
P207004598,BENIHANA OF TOKYO,1737 POST ST,SAN FRANCISCO,CA,94115,37.785503,-122.430298
P207004597,BELLY GOOD CAFE & CREPES,1737 POST ST,SAN FRANCISCO,CA,94115,37.785503,-122.430298
P207004794,NEW KOREA HOUSE,1620 POST ST,SAN FRANCISCO,CA,94115,37.785749,-122.428596
P207004789,MURATA'S CAFE HANA,1737 POST ST,SAN FRANCISCO,CA,94115,37.785503,-122.430298
P207004774,MAY'S COFFEE SHOP,1737 POST ST,SAN FRANCISCO,CA,94115,37.785503,-122.430298
P207004699,KAPPA RESTAURANT,1700 POST ST,SAN FRANCISCO,CA,94115,37.785575,-122.429866
P207004687,ISO-BUNE SUSHI,1737 POST ST,SAN FRANCISCO,CA,94115,37.785503,-122.430298
P207004684,INO SUSHI,22 PEACE PLZ,SAN FRANCISCO,CA,94115,37.785139,-122.429639
P207004658,"FRESH & NATURAL CAFÉ, LLC 31 (Inside Kaiser)",2425 GEARY BLVD,SAN FRANCISCO,CA,94115,37.782754,-122.443209
P207004652,FILLMORE FINE FOODS,1981 SUTTER ST,SAN FRANCISCO,CA,94115,37.786128,-122.432908
P211007899,Fraiche Yogurt,1910 FILLMORE ST,SAN FRANCISCO,CA,94115,37.78734,-122.433493
P212008377,Roam Artisan Burgers,1923 FILLMORE ST,SAN FRANCISCO,CA,94115,37.787568,-122.433555
P212008290,Troya #2 (Fillmore),2125 FILLMORE ST,SAN FRANCISCO,CA,94115,37.789181,-122.433884
P207004600,BENKYODO CO.,1747 BUCHANAN ST,SAN FRANCISCO,CA,94115,37.785959,-122.429858
P207004782,MIFUNE RESTAURANT,1737 POST ST,SAN FRANCISCO,CA,94115,37.785503,-122.430298
P210007418,TACOBAR (Fillmore St),2401 CALIFORNIA ST,SAN FRANCISCO,CA,94115,37.78888,-122.433991
P209006937,Fresca Restaurant- Fillmore,2114 FILLMORE ST,SAN FRANCISCO,CA,94115,37.789123,-122.433853
P210007538,Dosa on Fillmore,1700 FILLMORE ST,SAN FRANCISCO,CA,94115,37.785268,-122.433092
P211007784,K. Sakai,1656 POST ST,SAN FRANCISCO,CA,94115,37.785686,-122.429057
P211007770,Bun Mee,2015 FILLMORE ST,SAN FRANCISCO,CA,94115,37.788161,-122.433679
P211007661,Cinema Cafe at New People,1746 POST ST,SAN FRANCISCO,CA,94115,37.785503,-122.430438
P211007660,O Izakaya Lounge,1625 POST ST,SAN FRANCISCO,CA,94115,37.785726,-122.428631
P212008284,Rooster Tail,1963 SUTTER ST,SAN FRANCISCO,CA,94115,37.786159,-122.432674
P211007775,Jane,2123 FILLMORE ST,SAN FRANCISCO,CA,94115,37.789166,-122.433881
P207004603,BLUE JAY CAFE,919 DIVISADERO ST,SAN FRANCISCO,CA,94115,37.778019,-122.438412
P209006756,BUSHI-TEI BISTRO (Californian Fusion),1581 WEBSTER ST,SAN FRANCISCO,CA,94115,37.785227,-122.431411
P208006304,EL BURRITO EXPRESS,1601 TARAVAL ST,SAN FRANCISCO,CA,94116,37.742698,-122.483306
P207004733,CHOU CHOU,400 DEWEY BLVD,SAN FRANCISCO,CA,94116,37.747239,-122.459248
P207004851,Laguna Brothers Market,404 DEWEY BLVD,SAN FRANCISCO,CA,94116,37.747187,-122.459316
P207004850,Cool Guys,845 HOLLOWAY AVE,SAN FRANCISCO,CA,94116,37.721811,-122.461718
P208006377,MARISOLES BAR AND RESTAURANT,1439 TARAVAL ST,SAN FRANCISCO,CA,94116,37.742776,-122.481504
P211007794,BANHWICH (Taraval St),1105 TARAVAL ST,SAN FRANCISCO,CA,94116,37.742936,-122.47798
P205002756,TENNESSEE GRILL,1128 TARAVAL ST,SAN FRANCISCO,CA,94116,37.742945,-122.478188
P206002896,Shin Toe Bul Yi,2001 TARAVAL ST,SAN FRANCISCO,CA,94116,37.742517,-122.487595
P205002784,Seniore's Pizza,2415 19TH AVE,SAN FRANCISCO,CA,94116,37.742625,-122.475647
P209006815,SUSHI ZEN,1041 TARAVAL ST,SAN FRANCISCO,CA,94116,37.742965,-122.477228
P209006814,SZECHUAN TASTE RESTAURANT,917 TARAVAL ST,SAN FRANCISCO,CA,94116,37.743013,-122.475923
P209006812,THE GOLD MIRROR,800 TARAVAL ST,SAN FRANCISCO,CA,94116,37.7431,-122.474748
P209006811,TARAVAL PIZZA,1115 TARAVAL ST,SAN FRANCISCO,CA,94116,37.742933,-122.478067
P210007303,YELO GELATO CREPE,1353 TARAVAL ST,SAN FRANCISCO,CA,94116,37.742816,-122.480542
P210007343,SUSHI SHOH,406 DEWEY BLVD,SAN FRANCISCO,CA,94116,37.747161,-122.45935
P205002773,EIGHT IMMORTALS Restaurant,1433 TARAVAL ST,SAN FRANCISCO,CA,94116,37.742777,-122.481444
P207005767,Hanoi  Bistro,890 TARAVAL ST,SAN FRANCISCO,CA,94116,37.74305,-122.47549
P205002757,KFC #236 (Taraval St),1150 TARAVAL ST,SAN FRANCISCO,CA,94116,37.742938,-122.478378
P205002753,CHIC-N-COOP #6 (Taraval St),1055 TARAVAL ST,SAN FRANCISCO,CA,94116,37.74296,-122.477346
P205002751,Quickly - Taraval (Parkside ),1050 TARAVAL ST,SAN FRANCISCO,CA,94116,37.742978,-122.47732
P205002749,DRAGON'S CITY Restaurant (Taraval St),1033 TARAVAL ST,SAN FRANCISCO,CA,94116,37.742967,-122.477161
P206002925,CUTLET HOUSE CAFE,3560 TARAVAL ST,SAN FRANCISCO,CA,94116,37.741799,-122.504192
P206002924,AMITY MARKET,3350 TARAVAL ST,SAN FRANCISCO,CA,94116,37.741898,-122.501955
P206002915,EUROPEAN BAKERY,3020 TARAVAL ST,SAN FRANCISCO,CA,94116,37.742047,-122.498484
P206002914,QUEEN'S GROCERY MARKET,3016 TARAVAL ST,SAN FRANCISCO,CA,94116,37.742049,-122.49845
P206002912,Kingdom of Dumplings,1713 TARAVAL ST,SAN FRANCISCO,CA,94116,37.742654,-122.484479
P206002911,SEABEE LIQUOR,3000 TARAVAL ST,SAN FRANCISCO,CA,94116,37.742054,-122.498305
P206002910,ST GABRIEL SCHOOL,2550 41ST AVE,SAN FRANCISCO,CA,94116,37.739213,-122.49905
P206002909,DO US US CATERING,2500 38TH AVE,SAN FRANCISCO,CA,94116,37.740098,-122.495896
P206002908,PARKSIDE RESTAURANT,2325 TARAVAL ST,SAN FRANCISCO,CA,94116,37.742374,-122.491018
P206002907,THE OLD ROGUE,2319 TARAVAL ST,SAN FRANCISCO,CA,94116,37.742377,-122.490966
P206002906,PIRRO'S PIZZERIA,2244 TARAVAL ST,SAN FRANCISCO,CA,94116,37.742424,-122.490121
P206002905,COPPER KETTLE (House Of Donuts),2240 TARAVAL ST,SAN FRANCISCO,CA,94116,37.742425,-122.490087
P206002904,EVO ENTERTAINMENT,2234 TARAVAL ST,SAN FRANCISCO,CA,94116,37.742427,-122.490036
P206002902,7-ELEVEN (Taraval St.),2222 TARAVAL ST,SAN FRANCISCO,CA,94116,37.742429,-122.489933
P206002901,GENE'S LIQUOR,2201 TARAVAL ST,SAN FRANCISCO,CA,94116,37.742419,-122.489745
P206002900,MING'S DINER,2129 TARAVAL ST,SAN FRANCISCO,CA,94116,37.742455,-122.4889
P206002898,RISTORANTE MARCELLO,2100 TARAVAL ST,SAN FRANCISCO,CA,94116,37.742483,-122.488666
P206002889,Dumpling Kitchen,1935 TARAVAL ST,SAN FRANCISCO,CA,94116,37.742559,-122.486808
P206002888,INTERNATIONAL VIDEO,1832 TARAVAL ST,SAN FRANCISCO,CA,94116,37.742623,-122.485736
P206002886,Mocha 101,1722 TARAVAL ST,SAN FRANCISCO,CA,94116,37.742667,-122.484581
P206002884,EAGLE PIZZA,1712 TARAVAL ST,SAN FRANCISCO,CA,94116,37.74267,-122.484487
P206002883,JOHN'S MARKET,1701 TARAVAL ST,SAN FRANCISCO,CA,94116,37.742658,-122.484385
P206002941,GOLD MIRROR RESTAURANT,800 TARAVAL ST,SAN FRANCISCO,CA,94116,37.7431,-122.474748
P206002937,VICTOR'S BAKERY,719 TARAVAL ST,SAN FRANCISCO,CA,94116,37.743129,-122.473821
P206002935,GUERRA QUALITY MEATS,490 TARAVAL ST,SAN FRANCISCO,CA,94116,37.743257,-122.471165
P206002928,GREAT HIGHWAY MARKET,3633 TARAVAL ST,SAN FRANCISCO,CA,94116,37.741744,-122.50501
P205002789,White Horse Dim Sum & Restaurant,937 TARAVAL ST,SAN FRANCISCO,CA,94116,37.743006,-122.476103
P205002783,S & E Cafe,2406 19TH AVE,SAN FRANCISCO,CA,94116,37.742743,-122.475637
P205002779,EL BURRITO EXPRESS - (Taraval St),1601 TARAVAL ST,SAN FRANCISCO,CA,94116,37.742698,-122.483306
P205002777,King of Thai Noodle Cafe -Taraval,1541 TARAVAL ST,SAN FRANCISCO,CA,94116,37.742731,-122.48258
RST04,Chick N Coop Restaurant,1055 TARAVAL ST,SAN FRANCISCO,CA,94116,37.74296,-122.477346
P208006329,Kingdom of Dumpling,1713 TARAVAL ST,SAN FRANCISCO,CA,94116,37.742654,-122.484479
P205002752,New Taraval Cafe,1054 TARAVAL ST,SAN FRANCISCO,CA,94116,37.742976,-122.477354
P208006586,PORK STORE Cafe,1451 HAIGHT ST,SAN FRANCISCO,CA,94117,37.770095,-122.446139
P208006585,ZOZAN BIG SLICE,1535 HAIGHT ST,SAN FRANCISCO,CA,94117,37.769916,-122.447542
P208006285,Green Chile Kitchen,601 BAKER ST,SAN FRANCISCO,CA,94117,37.776522,-122.441516
P208006501,LITTLE CHIHUAHUA  (Divisadero),292 DIVISADERO ST,SAN FRANCISCO,CA,94117,37.772019,-122.437181
P205002338,TSUNAMI Panhandle,1306 FULTON ST,SAN FRANCISCO,CA,94117,37.776834,-122.438429
P205002315,ASQEW GRILL,1607 HAIGHT ST,SAN FRANCISCO,CA,94117,37.769758,-122.448802
P211007809,KAMEKYO,943 COLE ST,SAN FRANCISCO,CA,94117,37.765364,-122.449893
P210007457,EL RANCHO GRANDE Taqueria,855 DIVISADERO ST,SAN FRANCISCO,CA,94117,37.777354,-122.438275
P210007173,LUCKY STORE DELI #756 (Fulton St),1750 FULTON ST,SAN FRANCISCO,CA,94117,37.775901,-122.44565
P205002309,SQUAT & GOBBLE Cafe #2 (Haight St),1428 HAIGHT ST,SAN FRANCISCO,CA,94117,37.770148,-122.445878
P205002229,BLUE FRONT DELI,1430 HAIGHT ST,SAN FRANCISCO,CA,94117,37.770145,-122.445903
P212008350,BIG SLICE,1535 HAIGHT ST,SAN FRANCISCO,CA,94117,37.769916,-122.447542
P212008224,Burger Urge,1599 HAIGHT ST,SAN FRANCISCO,CA,94117,37.769814,-122.448392
P208006582,TIKKA MASALA (Haight St),1668 HAIGHT ST,SAN FRANCISCO,CA,94117,37.769633,-122.449811
P205001921,Cha Cha Cha,1801 HAIGHT ST,SAN FRANCISCO,CA,94117,37.769338,-122.452031
P208006365,PAPALOTE (Mexican Grill),1777 FULTON ST,SAN FRANCISCO,CA,94117,37.775842,-122.445984
P205002301,POPEYE'S FAMOUS FRIED CHICKEN (Divisadero St),599 DIVISADERO ST,SAN FRANCISCO,CA,94117,37.774873,-122.437776
P205002299,PEOPLE'S CAFE,1419 HAIGHT ST,SAN FRANCISCO,CA,94117,37.770149,-122.445737
P205002147,BEST OF THAI NOODLE HOUSE,1418 HAIGHT ST,SAN FRANCISCO,CA,94117,37.770165,-122.445753
P205002439,The Citrus Club,1790 HAIGHT ST,SAN FRANCISCO,CA,94117,37.769407,-122.451634
P205002438,ALEMBIC,1725 HAIGHT ST,SAN FRANCISCO,CA,94117,37.76946,-122.45106
P205002380,PLOY #2 THAI CUISINE,1770 HAIGHT ST,SAN FRANCISCO,CA,94117,37.76944,-122.451368
P205002370,MCDONALDS (Stanyan St),730 STANYAN ST,SAN FRANCISCO,CA,94117,37.768598,-122.453408
P205002364,KEZAR PUB,770 STANYAN ST,SAN FRANCISCO,CA,94117,37.767879,-122.453263
P205002363,KEZAR BAR & RESTAURANT,900 COLE ST,SAN FRANCISCO,CA,94117,37.765689,-122.44994
P205002362,KAN ZAMAN,1793 HAIGHT ST,SAN FRANCISCO,CA,94117,37.769384,-122.451675
P205002449,Zonarosa,1797 HAIGHT ST,SAN FRANCISCO,CA,94117,37.769379,-122.451711
P205002448,ZAZIE,941 COLE ST,SAN FRANCISCO,CA,94117,37.765378,-122.449896
P205002342,Escape From New York Pizza,1737 HAIGHT ST,SAN FRANCISCO,CA,94117,37.769447,-122.451168
P205002339,EOS RESTAURANT AND WINE BAR,901 COLE ST,SAN FRANCISCO,CA,94117,37.765673,-122.449956
P205002332,EL BALAZO,1654 HAIGHT ST,SAN FRANCISCO,CA,94117,37.769678,-122.44947
P205002329,CREPES ON COLE,100 CARL ST,SAN FRANCISCO,CA,94117,37.765767,-122.45014
P205002320,BURGERMEISTER- (Carl St),86 CARL ST,SAN FRANCISCO,CA,94117,37.765819,-122.449735
P205002319,BOULANGE DE COLE VALLEY,1000 COLE ST,SAN FRANCISCO,CA,94117,37.764776,-122.449753
P205002317,BANGKOK 900,900 STANYAN ST,SAN FRANCISCO,CA,94117,37.766275,-122.452928
P205002316,BAMBINO'S PIZZA RESTAURANT,945 COLE ST,SAN FRANCISCO,CA,94117,37.765349,-122.44989
P205002248,EDDIE'S CAFE,800 DIVISADERO ST,SAN FRANCISCO,CA,94117,37.776968,-122.438173
P208006254,Lily's BBQ,705 DIVISADERO ST,SAN FRANCISCO,CA,94117,37.776052,-122.438012
P208006449,Pete's Deli & Cafe,1661 DIVISADERO ST,SAN FRANCISCO,CA,94117,37.784855,-122.439789
P211007864,Oasis Cafe,910 DIVISADERO ST,SAN FRANCISCO,CA,94117,37.777975,-122.438385
P211008097,ACME BURGERHAUS,559 DIVISADERO ST,SAN FRANCISCO,CA,94117,37.774578,-122.437716
P205002232,Tsunami,1300 FULTON ST,SAN FRANCISCO,CA,94117,37.776844,-122.438348
P212008397,Stanza Coffee and Wine Bar,1673 HAIGHT ST,SAN FRANCISCO,CA,94117,37.76958,-122.450137
P209006792,Ziryab,524 DIVISADERO ST,SAN FRANCISCO,CA,94117,37.774344,-122.437648
P209006790,Little Star Pizza (Divisadero),846 DIVISADERO ST,SAN FRANCISCO,CA,94117,37.777311,-122.438246
P205002257,Bistro Gambrinus,1813 FULTON ST,SAN FRANCISCO,CA,94117,37.775748,-122.44674
P211007839,Vinyl Wine Bar,359 DIVISADERO ST,SAN FRANCISCO,CA,94117,37.772734,-122.437351
P211007838,Falleti Foods,308 BRODERICK ST,SAN FRANCISCO,CA,94117,37.773078,-122.439107
P207005891,Nopa,560 DIVISADERO ST,SAN FRANCISCO,CA,94117,37.774609,-122.437703
P210007345,Bistro Central Parc,560 CENTRAL AVE,SAN FRANCISCO,CA,94117,37.774699,-122.444514
P211007752,CocoLuxe,1673 HAIGHT ST,SAN FRANCISCO,CA,94117,37.76958,-122.450137
P211007751,PARADA 22,1805 HAIGHT ST,SAN FRANCISCO,CA,94117,37.769331,-122.452085
P210007516,Mojo Bicycle Café,639 DIVISADERO ST,SAN FRANCISCO,CA,94117,37.775363,-122.437875
P211007853,Amitis Deli Cafe,800 MASONIC AVE,SAN FRANCISCO,CA,94117,37.773877,-122.446087
P208006381,DeLessio Market & Bakery,302 BRODERICK ST,SAN FRANCISCO,CA,94117,37.773033,-122.439097
P205002287,MAGNOLIA PUB & BREWERY,1398 HAIGHT ST,SAN FRANCISCO,CA,94117,37.770241,-122.445174
P205002281,JAY'S CHEESESTEAKS #2,553 DIVISADERO ST,SAN FRANCISCO,CA,94117,37.774534,-122.437707
P205002278,HOME SERVICE MARKET,1700 HAYES ST,SAN FRANCISCO,CA,94117,37.774135,-122.444592
P205002275,HERBIVORE - THE EARTHLY GRILL,531 DIVISADERO ST,SAN FRANCISCO,CA,94117,37.774372,-122.437673
P205002136,BEAN BAG COFFEE HOUSE,601 DIVISADERO ST,SAN FRANCISCO,CA,94117,37.775075,-122.437818
P205002130,ALL YOU KNEAD CAFE,1466 HAIGHT ST,SAN FRANCISCO,CA,94117,37.770084,-122.446356
P205002368,MARKET CAFE USF,2130 FULTON ST,SAN FRANCISCO,CA,94117,37.775106,-122.452021
P205002632,Taboun,203 PARNASSUS AVE,SAN FRANCISCO,CA,94117,37.764464,-122.452698
P205002631,Bia Restaurant and Wine Bar,1640 HAIGHT ST,SAN FRANCISCO,CA,94117,37.769707,-122.449273
P205002430,SAY CHEESE,856 COLE ST,SAN FRANCISCO,CA,94117,37.76621,-122.450041
P205002427,REVERIE COFFEE HOUSE,848 COLE ST,SAN FRANCISCO,CA,94117,37.766271,-122.450052
P205002426,RED VICTORIAN (Peace Cafe),1665 HAIGHT ST,SAN FRANCISCO,CA,94117,37.769596,-122.449985
P205002128,BUS STOP PIZZA #1,256 DIVISADERO ST,SAN FRANCISCO,CA,94117,37.771477,-122.437071
P205002343,FINNEGAN'S WAKE,937 COLE ST,SAN FRANCISCO,CA,94117,37.765408,-122.449902
P205002335,Bar Crudo,655 DIVISADERO ST,SAN FRANCISCO,CA,94117,37.775485,-122.4379
P205002323,Cala Foods Stanyan (now Whole Foods,690 STANYAN ST,SAN FRANCISCO,CA,94117,37.769377,-122.453561
P205002313,ALPHA MARKET,960 COLE ST,SAN FRANCISCO,CA,94117,37.765247,-122.449849
P205002255,FLY (Divisadero),762 DIVISADERO ST,SAN FRANCISCO,CA,94117,37.7765,-122.43808
P205002242,DELI PLUS,1900 HAYES ST,SAN FRANCISCO,CA,94117,37.773724,-122.447886
P205002239,CUP A JOE COFFEE HOUSE (Hayes),1901 HAYES ST,SAN FRANCISCO,CA,94117,37.773708,-122.44787
P205002238,CREPE EXPRESS,1476 HAIGHT ST,SAN FRANCISCO,CA,94117,37.770068,-122.446481
P205002237,CLUB WAZIEMA,543 DIVISADERO ST,SAN FRANCISCO,CA,94117,37.77446,-122.437691
P205002234,CENTRAL COFFEE TEA & SPICE,1696 HAYES ST,SAN FRANCISCO,CA,94117,37.774184,-122.444202
P208006157,BAY FUNG TONG SEAFOOD TEA HOUSE,327 BALBOA ST,SAN FRANCISCO,CA,94118,37.777286,-122.462202
P208006146,LITTLE VIETNAM CAFE,309 06TH AVE,SAN FRANCISCO,CA,94118,37.77449,-122.463827
P209006843,SAFEWAY  DELI #2646,735 07TH AVE,SAN FRANCISCO,CA,94118,37.77449,-122.463827
P205001607,BALBOA SUSHI HOUSE,402 BALBOA ST,SAN FRANCISCO,CA,94118,37.777262,-122.463082
P211007964,MIDORI,3420 GEARY BLVD,SAN FRANCISCO,CA,94118,37.781468,-122.456048
P205001661,Round Table Pizza (5160 Geary),5160 GEARY BLVD,SAN FRANCISCO,CA,94118,37.780609,-122.474656
P205001659,Ross Dress for Less #126,5200 GEARY BLVD,SAN FRANCISCO,CA,94118,37.780583,-122.475223
P205001656,Rite Aid #6205,5280 GEARY BLVD,SAN FRANCISCO,CA,94118,37.780551,-122.47591
P205001657,LUCKY PENNY,2670 GEARY BLVD,SAN FRANCISCO,CA,94118,37.782499,-122.446925
P205001654,Renaissance (Russian Restaurant),5241 GEARY BLVD,SAN FRANCISCO,CA,94118,37.780451,-122.475545
P205001652,Northern Homebrew Supply Co,1555 CLEMENT ST,SAN FRANCISCO,CA,94118,37.782405,-122.475803
P205001650,Creation,5217 GEARY BLVD,SAN FRANCISCO,CA,94118,37.78046,-122.475341
P205001643,Joe's Pharmacy Inc.,5199 GEARY BLVD,SAN FRANCISCO,CA,94118,37.780477,-122.474978
P205001641,House of Bagels,5030 GEARY BLVD,SAN FRANCISCO,CA,94118,37.780677,-122.47326
P205001638,G & G Produce,5015 GEARY BLVD,SAN FRANCISCO,CA,94118,37.780561,-122.47309
P205001632,Domino's Pizza (5200 Geary),5200 GEARY BLVD,SAN FRANCISCO,CA,94118,37.780583,-122.475223
P205001631,Oozola,5120 GEARY BLVD,SAN FRANCISCO,CA,94118,37.780625,-122.474297
P205001630,Congregation Beth Sholom,320 15TH AVE,SAN FRANCISCO,CA,94118,37.782114,-122.474075
P205001621,ARGONNE CHILD DEVELOPMENT CENTER,750 16TH AVE,SAN FRANCISCO,CA,94118,37.773928,-122.4746
P205001620,Argonne Alternative Elementary School,680 18TH AVE,SAN FRANCISCO,CA,94118,37.775249,-122.476854
P205001618,7 - Eleven (Geary),5100 GEARY BLVD,SAN FRANCISCO,CA,94118,37.780633,-122.47411
P205001616,KING SING RESTAURANT,501 BALBOA ST,SAN FRANCISCO,CA,94118,37.777197,-122.464133
P205001595,ROUND TABLE PIZZA Rest. (Geary),3567 GEARY BLVD,SAN FRANCISCO,CA,94118,37.781277,-122.457181
P205001586,PANCHO'S,3440 GEARY BLVD,SAN FRANCISCO,CA,94118,37.781459,-122.456165
P205001585,OKINA SUSHI,776 ARGUELLO BLVD,SAN FRANCISCO,CA,94118,37.775921,-122.458488
P205001701,KATIA'S (Russian Restaurant),600 05TH AVE,SAN FRANCISCO,CA,94118,37.77449,-122.463827
P205001689,EMPEROR Palace  Restaurant,530 BALBOA ST,SAN FRANCISCO,CA,94118,37.777201,-122.464396
P205001515,Arguello Supermarket,782 ARGUELLO BLVD,SAN FRANCISCO,CA,94118,37.775811,-122.458478
P211007897,Les Croissant,1840 GEARY BLVD,SAN FRANCISCO,CA,94118,37.78445,-122.433697
P211007896,Earths Coffee,3400 GEARY BLVD,SAN FRANCISCO,CA,94118,37.781492,-122.455647
P211007895,Cup & Cake Cafe,3500 GEARY BLVD,SAN FRANCISCO,CA,94118,37.781433,-122.456759
P205001662,Eden Villa- San Francisco,2750 GEARY BLVD,SAN FRANCISCO,CA,94118,37.782416,-122.448599
P205001591,PING'S MEAT MARKET,0239 BALBOA ST,SAN FRANCISCO,CA,94118,37.777331,-122.461244
P205001906,Assab,2845 GEARY BLVD,SAN FRANCISCO,CA,94118,37.782127,-122.449533
P205001666,The Pig & Whistle,2801 GEARY BLVD,SAN FRANCISCO,CA,94118,37.782124,-122.449095
P205001646,Chomp n' Swig,1541 CLEMENT ST,SAN FRANCISCO,CA,94121,37.782411,-122.475685
P205001942,THOM'S MEXICAN RESTAURANT,5929 GEARY BLVD,SAN FRANCISCO,CA,94121,37.780112,-122.482923
P205002032,Gastronom Deli,5801 GEARY BLVD,SAN FRANCISCO,CA,94121,37.780177,-122.481632
P205002019,AK Meats,2346 CLEMENT ST,SAN FRANCISCO,CA,94121,37.782054,-122.484321
P205001663,Royal Ground Coffee,5301 GEARY BLVD,SAN FRANCISCO,CA,94121,37.780418,-122.476276
P205001653,Hong Kong Lounge,5322 GEARY BLVD,SAN FRANCISCO,CA,94121,37.780527,-122.476476
P205001649,The Nag's Head,5346 GEARY BLVD,SAN FRANCISCO,CA,94121,37.780519,-122.476691
P205001648,Nagoya Japanese Restaurant,5454 GEARY BLVD,SAN FRANCISCO,CA,94121,37.780466,-122.47784
P205001647,McKenzies,5320 GEARY BLVD,SAN FRANCISCO,CA,94121,37.780527,-122.476466
P205001645,M J Market,1701 BALBOA ST,SAN FRANCISCO,CA,94121,37.776626,-122.477077
P205001642,Joe's Ice Cream,5420 GEARY BLVD,SAN FRANCISCO,CA,94121,37.780482,-122.477546
P205001639,Gordo Taqueria #6,5450 GEARY BLVD,SAN FRANCISCO,CA,94121,37.780468,-122.477806
P205001636,Einer's Diner,5319 GEARY BLVD,SAN FRANCISCO,CA,94121,37.780412,-122.476423
P205001633,Donut World,5401 GEARY BLVD,SAN FRANCISCO,CA,94121,37.780376,-122.477356
P205001627,California Grind,5501 CALIFORNIA ST,SAN FRANCISCO,CA,94121,37.784238,-122.476556
P205001626,C & H Produce,1612 BALBOA ST,SAN FRANCISCO,CA,94121,37.77668,-122.476107
P205001624,Blockbuster Video,5240 GEARY BLVD,SAN FRANCISCO,CA,94121,37.780567,-122.475571
P205001623,Bistro 1650/Ral Catering Inc.,1650 BALBOA ST,SAN FRANCISCO,CA,94121,37.776668,-122.476433
P205001619,Alexandria Theatre,5400 GEARY BLVD,SAN FRANCISCO,CA,94121,37.780492,-122.477366
P205001617,17th & Balboa Market,1601 BALBOA ST,SAN FRANCISCO,CA,94121,37.776668,-122.476005
P205001944,"ZAZEN COFFEE, TEA & ORGANICS",2314 CLEMENT ST,SAN FRANCISCO,CA,94121,37.782067,-122.484045
P205001943,WIRTH BROS PASTRY,5901 GEARY BLVD,SAN FRANCISCO,CA,94121,37.780126,-122.482687
P205001941,TIGER'S LIQUORS,2400 CLEMENT ST,SAN FRANCISCO,CA,94121,37.782023,-122.484993
P205001940,Thom's Natural Foods/Fresh Organics,5843 GEARY BLVD,SAN FRANCISCO,CA,94121,37.78016,-122.481977
P205001939,MAI THAI FUSION CUISINE,5850 GEARY BLVD,SAN FRANCISCO,CA,94121,37.780273,-122.48207
P205001937,SEAKOR DELI & Sausage Factory,5957 GEARY BLVD,SAN FRANCISCO,CA,94121,37.780099,-122.483167
P205001936,ROYAL GROUND COFFEE,2348 CLEMENT ST,SAN FRANCISCO,CA,94121,37.782053,-122.484338
P205001933,LIBERTY MARKET,5851 GEARY BLVD,SAN FRANCISCO,CA,94121,37.780157,-122.482044
P205001928,Family Sauna Shop,2308 CLEMENT ST,SAN FRANCISCO,CA,94121,37.782069,-122.483985
P205001925,Carl & Dan's Chevron,6000 GEARY BLVD,SAN FRANCISCO,CA,94121,37.780213,-122.483785
P205001923,26's Corner Restaurant,2450 CLEMENT ST,SAN FRANCISCO,CA,94121,37.782003,-122.485425
P205001922,25th & Clement Produce Market,2354 CLEMENT ST,SAN FRANCISCO,CA,94121,37.782051,-122.48439
P205001675,A-I SUSHI,5338 GEARY BLVD,SAN FRANCISCO,CA,94121,37.780522,-122.476622
P205001674,Walgreens,5411 GEARY BLVD,SAN FRANCISCO,CA,94121,37.780371,-122.477434
P205001670,The Posh Bagel (Geary),5420 GEARY BLVD,SAN FRANCISCO,CA,94121,37.780482,-122.477546
P205001668,Starbucks,5455 GEARY BLVD,SAN FRANCISCO,CA,94121,37.78035,-122.477814
P205001667,Shanghai Noodles,1808 BALBOA ST,SAN FRANCISCO,CA,94121,37.776579,-122.478239
P208006253,KOO (Japanese Restaurant),408 IRVING ST,SAN FRANCISCO,CA,94122,37.764231,-122.462221
P208006390,CHABAA THAI CUISINE (Irving),2123 IRVING ST,SAN FRANCISCO,CA,94122,37.763403,-122.48065
P208006426,PACIFIC CATCH (Fresh Fish Grill) 9th Av,1200 09TH AVE,SAN FRANCISCO,CA,94122,37.759427,-122.485951
P208006584,THE TACO SHOP (Underdogs),1824 IRVING ST,SAN FRANCISCO,CA,94122,37.763551,-122.47759
P208006583,ENJOY VEGETARIAN RESTAURANT (Kirkham),754 KIRKHAM ST,SAN FRANCISCO,CA,94122,37.760186,-122.468777
P209006751,KINGDOM Of NOODLES,1639 IRVING ST,SAN FRANCISCO,CA,94122,37.763631,-122.475406
P208006247,TEN (Japanese Restaurant),524 IRVING ST,SAN FRANCISCO,CA,94122,37.76418,-122.463425
P208006367,GO GO CAFE,1830 IRVING ST,SAN FRANCISCO,CA,94122,37.763544,-122.477701
P207004853,Glen Park Elementary School,151 LIPPARD AVE,SAN FRANCISCO,CA,94122,37.733121,-122.43605
P211007932,BAAN THAI HOUSE & Wine Bar,534 IRVING ST,SAN FRANCISCO,CA,94122,37.764175,-122.46351
P211008090,PATXIS CHICAGO PIZZA (Irving St),822 IRVING ST,SAN FRANCISCO,CA,94122,37.764037,-122.466631
P205002494,Loi's Vietnamese Restaurant,2228 IRVING ST,SAN FRANCISCO,CA,94122,37.763378,-122.481776
P212008345,Carmelina's Taqueria (Parnassus),500 PARNASSUS AVE,SAN FRANCISCO,CA,94122,37.763428,-122.458187
P209007051,Rice Valley,2333 IRVING ST,SAN FRANCISCO,CA,94122,37.763304,-122.48287
P205002587,PASION Restaurant,737 IRVING ST,SAN FRANCISCO,CA,94122,37.764062,-122.465665
P205002572,Wishbone,601 IRVING ST,SAN FRANCISCO,CA,94122,37.764118,-122.464277
P205002525,GORDO TAQUERIA #2,1239 09TH AVE,SAN FRANCISCO,CA,94122,37.759427,-122.485951
P211007980,MASALA DOSA,1375 09TH AVE,SAN FRANCISCO,CA,94122,37.759427,-122.485951
P211007920,LOVING HUT (Irving St),524 IRVING ST,SAN FRANCISCO,CA,94122,37.76418,-122.463425
P209006897,TOFU VILLAGE,1920 IRVING ST,SAN FRANCISCO,CA,94122,37.763507,-122.478496
P212008188,BURSA (Meditterean Cuisine),60 WEST PORTAL AVE,SAN FRANCISCO,CA,94122,37.740205,-122.466465
P212008182,HOT POT GARDEN (Taraval St),1055 TARAVAL ST,SAN FRANCISCO,CA,94122,37.74296,-122.477346
P210007149,CURRY VILLAGE,1386 09TH AVE,SAN FRANCISCO,CA,94122,37.759427,-122.485951
P209006813,KING WONTON & NOODLE,1936 IRVING ST,SAN FRANCISCO,CA,94122,37.763502,-122.478633
P209006810,AMISHA (Indian Cuisine),1924 IRVING ST,SAN FRANCISCO,CA,94122,37.763506,-122.47853
P212008301,NOPALITO (9th Ave),1224 09TH AVE,SAN FRANCISCO,CA,94122,37.759427,-122.485951
P212008135,TEA WAY #3 (Irving St),2250 IRVING ST,SAN FRANCISCO,CA,94122,37.763368,-122.481966
P210007397,TEA WAY  (Irving St),2150 IRVING ST,SAN FRANCISCO,CA,94122,37.763413,-122.480887
P210007396,SAIWAII RAMEN,2240 IRVING ST,SAN FRANCISCO,CA,94122,37.763372,-122.481879
P210007486,LET'S ROLL (SUSHI),2154 IRVING ST,SAN FRANCISCO,CA,94122,37.763412,-122.480921
P210007485,BROTHER SEAFOOD RESTAURANT,1830 IRVING ST,SAN FRANCISCO,CA,94122,37.763544,-122.477701
P209006788,KEVIN'S NOODLE HOUSE,1833 IRVING ST,SAN FRANCISCO,CA,94122,37.763528,-122.477711
P205002645,ROXIE Market & Deli,500 KIRKHAM ST,SAN FRANCISCO,CA,94122,37.760303,-122.466185
P210007263,LIME TREE,450 IRVING ST,SAN FRANCISCO,CA,94122,37.764218,-122.462585
P211007921,MANNA (Korean Food),845 IRVING ST,SAN FRANCISCO,CA,94122,37.764014,-122.466803
P210007301,SUSHI KAZU,841 IRVING ST,SAN FRANCISCO,CA,94122,37.764015,-122.466777
P205002532,HOTEI JAPANESE RESTAURANT,1290 09TH AVE,SAN FRANCISCO,CA,94122,37.759427,-122.485951
P209007061,SAI GOW (Thai Noodle Cafe),1319 09TH AVE,SAN FRANCISCO,CA,94122,37.759427,-122.485951
P205002710,LA FONDA Mexican Grill,712 IRVING ST,SAN FRANCISCO,CA,94122,37.764088,-122.465475
P212008139,DASH CAFE,420 JUDAH ST,SAN FRANCISCO,CA,94122,37.762246,-122.466468
P205002600,POMELO,92 JUDAH ST,SAN FRANCISCO,CA,94122,37.762355,-122.462821
P208006600,HING WANG BAKERY DIM SUM,339 JUDAH ST,SAN FRANCISCO,CA,94122,37.762207,-122.465554
P205002552,Empress Garden Restaurant,1386 09TH AVE,SAN FRANCISCO,CA,94122,37.759427,-122.485951
P205002541,Arizmendi Bakery,1331 09TH AVE,SAN FRANCISCO,CA,94122,37.759427,-122.485951
P205002575,Fireside,603 IRVING ST,SAN FRANCISCO,CA,94122,37.764117,-122.464294
P206003634,Bayview Liquors,4700 03RD ST,SAN FRANCISCO,CA,94122,37.759427,-122.485951
P208006363,VENO (Japanese Restaurant),1639 IRVING ST,SAN FRANCISCO,CA,94122,37.763631,-122.475406
P205002554,J & J BAKERY,1398 09TH AVE,SAN FRANCISCO,CA,94122,37.759427,-122.485951
P205002553,Internet Wired Cafe,1392 09TH AVE,SAN FRANCISCO,CA,94122,37.759427,-122.485951
P205002550,CHENG'S KITCHEN TOKYO HOUSE,1382 09TH AVE,SAN FRANCISCO,CA,94122,37.759427,-122.485951
P205002548,Great Stuff,1377 09TH AVE,SAN FRANCISCO,CA,94122,37.759427,-122.485951
P205002545,MAN HING MARKET,1368 09TH AVE,SAN FRANCISCO,CA,94122,37.759427,-122.485951
P205002544,NANJING  ROAD BISTRO,1360 09TH AVE,SAN FRANCISCO,CA,94122,37.759427,-122.485951
P205002543,ANDY'S RESTAURANT,1358 09TH AVE,SAN FRANCISCO,CA,94122,37.759427,-122.485951
P205002540,MILANO PIZZERIA,1330 09TH AVE,SAN FRANCISCO,CA,94122,37.759427,-122.485951
P205002539,ELDOS GRILL & MICRO BREWERY,1326 09TH AVE,SAN FRANCISCO,CA,94122,37.759427,-122.485951
P205002538,BURGER KING (9th ave),1325 09TH AVE,SAN FRANCISCO,CA,94122,37.759427,-122.485951
P205002537,SUKHOTHAI RESTAURANT,1319 09TH AVE,SAN FRANCISCO,CA,94122,37.759427,-122.485951
P205002536,Mucky Duck,1315 09TH AVE,SAN FRANCISCO,CA,94122,37.759427,-122.485951
P205002535,HOWARD'S CAFE,1309 09TH AVE,SAN FRANCISCO,CA,94122,37.759427,-122.485951
P205002534,Organic Grounds/Beanery,1307 09TH AVE,SAN FRANCISCO,CA,94122,37.759427,-122.485951
P205002533,Juise Club Inc.,1300 09TH AVE,SAN FRANCISCO,CA,94122,37.759427,-122.485951
P205002531,St John of God Senio Meals Program,1290 05TH AVE,SAN FRANCISCO,CA,94122,37.759427,-122.485951
P205002530,EBISU RESTAURANT,1283 09TH AVE,SAN FRANCISCO,CA,94122,37.759427,-122.485951
P205002528,U. C. Market,1251 03RD AVE,SAN FRANCISCO,CA,94122,37.759427,-122.485951
P205002527,Megaflex Fitness Center,1247 09TH AVE,SAN FRANCISCO,CA,94122,37.759427,-122.485951
P205002524,PARK CHOW,1240 09TH AVE,SAN FRANCISCO,CA,94122,37.759427,-122.485951
P205002522,SLIDERS DINER (9th Ave),1233 09TH AVE,SAN FRANCISCO,CA,94122,37.759427,-122.485951
P205002485,PARK GYROS,1201 09TH AVE,SAN FRANCISCO,CA,94122,37.759427,-122.485951
P205002477,The Canvas Cafe/Gallery,1200 09TH AVE,SAN FRANCISCO,CA,94122,37.759427,-122.485951
P205002620,Yum Yum Fish,2181 IRVING ST,SAN FRANCISCO,CA,94122,37.76339,-122.481142
P205002616,K.O. Kombo,2110 IRVING ST,SAN FRANCISCO,CA,94122,37.763422,-122.480548
P205002601,YOU SEE SUSHI,94 JUDAH ST,SAN FRANCISCO,CA,94122,37.762354,-122.462838
P205002599,MANNA KOREAN,845 IRVING ST,SAN FRANCISCO,CA,94122,37.764014,-122.466803
P205002598,CHIKA JAPANESE RESTAURANT,841 IRVING ST,SAN FRANCISCO,CA,94122,37.764015,-122.466777
P205002597,Park's Farmers Market,840 IRVING ST,SAN FRANCISCO,CA,94122,37.764031,-122.466785
P205002596,Blackhorn Tavern,834 IRVING ST,SAN FRANCISCO,CA,94122,37.764033,-122.466734
P205002595,828 Irving Market,828 IRVING ST,SAN FRANCISCO,CA,94122,37.764035,-122.466682
P205002592,Little Shamrock,807 LINCOLN BLVD,SAN FRANCISCO,CA,94122,37.765914,-122.466596
P205002591,Reliable Drug Company,801 IRVING ST,SAN FRANCISCO,CA,94122,37.764028,-122.466435
P205002590,ART'S CAFE,747 IRVING ST,SAN FRANCISCO,CA,94122,37.764058,-122.46575
P205002589,Starbucks Coffee Co.,744 IRVING ST,SAN FRANCISCO,CA,94122,37.764075,-122.465749
P205002588,POSH BAGEL (Irving),742 IRVING ST,SAN FRANCISCO,CA,94122,37.764076,-122.465732
P205002586,Yancy's Saloon,734 IRVING ST,SAN FRANCISCO,CA,94122,37.764079,-122.465664
P205002584,Secret Garden Tea House,721 LINCOLN BLVD,SAN FRANCISCO,CA,94122,37.765959,-122.465633
P205002582,IRVING STREET CAFE,716 IRVING ST,SAN FRANCISCO,CA,94122,37.764086,-122.46551
P205002581,PASQUALES PIZZA & Restaurant,700 & IRVING ST,SAN FRANCISCO,CA,94122,37.764093,-122.465365
P205002579,NAAN  'N' CURRY (Irving St),642 IRVING ST,SAN FRANCISCO,CA,94122,37.76412,-122.464651
P205002576,THE CREPEVINE (Irving St),624 IRVING ST,SAN FRANCISCO,CA,94122,37.764126,-122.464494
P205002574,Beanery Inc.,602 IRVING ST,SAN FRANCISCO,CA,94122,37.764133,-122.464294
P205002573,Lincoln Shell #3,601 LINCOLN BLVD,SAN FRANCISCO,CA,94122,37.766026,-122.464412
P205002571,HAHN'S HIBACHI (Irving St),535 IRVING ST,SAN FRANCISCO,CA,94122,37.764159,-122.463494
P205002569,MAE THIP THAE CUISINE,524 IRVING ST,SAN FRANCISCO,CA,94122,37.76418,-122.463425
P205002568,LA VENIDA,511 IRVING ST,SAN FRANCISCO,CA,94122,37.764171,-122.46329
P205002567,YELLOW SUBMARINE,503 IRVING ST,SAN FRANCISCO,CA,94122,37.764175,-122.46323
P205002566,DRAGONFLY RESTAURANT,420 JUDAH ST,SAN FRANCISCO,CA,94122,37.762246,-122.466468
P205002565,JAPANESE RESTAURANT KOO,408 IRVING ST,SAN FRANCISCO,CA,94122,37.764231,-122.462221
P205002564,Royal Food Store,401 JUDAH ST,SAN FRANCISCO,CA,94122,37.762136,-122.46628
P205002563,Park's Famers's Market,400 IRVING ST,SAN FRANCISCO,CA,94122,37.764234,-122.462153
P205002558,"Judah Ninth Avenue, Liquors",1400 09TH AVE,SAN FRANCISCO,CA,94122,37.759427,-122.485951
P205002557,Stand Bi Market,1400 08TH AVE,SAN FRANCISCO,CA,94122,37.759427,-122.485951
P205002699,SOUTH SEA SEAFOOD VILLAGE,1420 IRVING ST,SAN FRANCISCO,CA,94122,37.763745,-122.47311
P205002695,PHO HUYNH HIEP II,1833 IRVING ST,SAN FRANCISCO,CA,94122,37.763528,-122.477711
P205002683,Kitchen Kura,1525 IRVING ST,SAN FRANCISCO,CA,94122,37.76368,-122.474233
P205002679,IRVING PIZZA- (Irving St),1825 IRVING ST,SAN FRANCISCO,CA,94122,37.763535,-122.47759
P205002651,Yummy Yummy Vietnameses Restaurant,1015 IRVING ST,SAN FRANCISCO,CA,94122,37.763941,-122.468696
P205002643,NEW ERITREA Restaurant,907 IRVING ST,SAN FRANCISCO,CA,94122,37.763986,-122.467557
P205002512,SUN MAXIM'S,2034 IRVING ST,SAN FRANCISCO,CA,94122,37.763459,-122.479694
P205002507,Sheng Kee Bakery (1941 Irving St),1941 IRVING ST,SAN FRANCISCO,CA,94122,37.763485,-122.478659
P205002506,Shangri-La Vegetarian Restaurant,2026 IRVING ST,SAN FRANCISCO,CA,94122,37.763462,-122.479625
P205002491,Lam Hoa Thuan Restaurant,2337 IRVING ST,SAN FRANCISCO,CA,94122,37.763302,-122.482905
P205002489,KENTUCKY FRIED CHICKEN #50 (Irving St),1900 IRVING ST,SAN FRANCISCO,CA,94122,37.763514,-122.478325
P205002484,LITTLE PARIS,2305 IRVING ST,SAN FRANCISCO,CA,94122,37.763315,-122.482639
P205002475,IRVING CAFE & DELI,2146 IRVING ST,SAN FRANCISCO,CA,94122,37.763414,-122.480854
P205002471,Happy Bakery & Dim Sum,2253 IRVING ST,SAN FRANCISCO,CA,94122,37.763351,-122.481967
P205002466,Durty Nelly's Irish Pub & Restaurant,2328 IRVING ST,SAN FRANCISCO,CA,94122,37.763321,-122.482852
P205002561,Hugo Street Cafe,205 HUGO ST,SAN FRANCISCO,CA,94122,37.765225,-122.46011
P205002560,SUNSET BAKERY,1410 09TH AVE,SAN FRANCISCO,CA,94122,37.759427,-122.485951
P205002559,Golden Bear Market,1401 06TH AVE,SAN FRANCISCO,CA,94122,37.759427,-122.485951
P208006599,GOOD EARTH CUISINE,1325 09TH AVE,SAN FRANCISCO,CA,94122,37.759427,-122.485951
P205002637,Golden Rice Bowl,1030 IRVING ST,SAN FRANCISCO,CA,94122,37.763951,-122.468849
P212008302,I Crave,1915 IRVING ST,SAN FRANCISCO,CA,94122,37.763493,-122.478444
P212008228,Uncle Bennys Donuts,2049 IRVING ST,SAN FRANCISCO,CA,94122,37.763437,-122.479797
P205002546,TASTY CURRY RESTAURANT,1375 09TH AVE,SAN FRANCISCO,CA,94122,37.759427,-122.485951
P211007967,Wooly Pig,205 HUGO ST,SAN FRANCISCO,CA,94122,37.765225,-122.46011
P211007742,Social Kitchen & Brewery,1326 09TH AVE,SAN FRANCISCO,CA,94122,37.759427,-122.485951
P211007699,Soi Gow Thai Noodle Cafe,1319 09TH AVE,SAN FRANCISCO,CA,94122,37.759427,-122.485951
P211007983,JENNY'S BURGER,1233 09TH AVE,SAN FRANCISCO,CA,94122,37.759427,-122.485951
P212008354,Full Moon Thai Bistro,1220 09TH AVE,SAN FRANCISCO,CA,94122,37.759427,-122.485951
P212008218,Sheng Kee Bakery (816 Irving),816 IRVING ST,SAN FRANCISCO,CA,94122,37.764039,-122.466572
P205002555,DONUT WORLD (9th Ave),1399 09TH AVE,SAN FRANCISCO,CA,94122,37.759427,-122.485951
P205002551,CYBELLE'S FRONT ROOM,1385 09TH AVE,SAN FRANCISCO,CA,94122,37.759427,-122.485951
P205002549,JIMISAN SUSHI BISTRO,1380 09TH AVE,SAN FRANCISCO,CA,94122,37.759427,-122.485951
P205002523,Daily Health,1235 09TH AVE,SAN FRANCISCO,CA,94122,37.759427,-122.485951
P205002578,Tart to Tart,641 IRVING ST,SAN FRANCISCO,CA,94122,37.764105,-122.464626
P205002556,KIKI (Japanese Restaurant),1269 09TH AVE,SAN FRANCISCO,CA,94122,37.759427,-122.485951
P205002674,Underdog,1634 IRVING ST,SAN FRANCISCO,CA,94122,37.763649,-122.475387
P205002667,Goemon,1524 IRVING ST,SAN FRANCISCO,CA,94122,37.763696,-122.474241
P205002636,Andronico's Market,1200 IRVING ST,SAN FRANCISCO,CA,94122,37.763853,-122.470716
P205002562,WING SING BAKERY,339 JUDAH ST,SAN FRANCISCO,CA,94122,37.762207,-122.465554
P207005766,K's  KITCHEN,757 MONTEREY BLVD,SAN FRANCISCO,CA,94127,37.731521,-122.452391
P207004994,KENTUCKY FRIED CHICKEN (OCEAN AV),2040 OCEAN AVE,SAN FRANCISCO,CA,94127,37.726386,-122.465221
P207004864,Kwik & Convenient,600 MONTEREY BLVD,SAN FRANCISCO,CA,94127,37.731558,-122.449024
P207004861,Miraloma Liqour,691 PORTOLA DR,SAN FRANCISCO,CA,94127,37.744535,-122.453027
P207004859,Starbucks Coffee,675 PORTOLA DR,SAN FRANCISCO,CA,94127,37.74464,-122.452853
P207004857,Ramallah Club,1951 OCEAN AVE,SAN FRANCISCO,CA,94127,37.725661,-122.463321
P207004746,SOPHIA'S PIZZERIA,1934 OCEAN AVE,SAN FRANCISCO,CA,94127,37.725683,-122.463321
P207004743,New Emmy's Restaurant,1923 OCEAN AVE,SAN FRANCISCO,CA,94127,37.725431,-122.462716
P207004742,JOE'S EXCELLENT (Chinese Cuisine),1919 OCEAN AVE,SAN FRANCISCO,CA,94127,37.725407,-122.46265
P207004741,LUCKY  RIVER Chinese Restaurant,700 MONTEREY BLVD,SAN FRANCISCO,CA,94127,37.731546,-122.451374
P207004740,Happy Palace Restaurant,696 MONTEREY BLVD,SAN FRANCISCO,CA,94127,37.731549,-122.450886
P207004739,BIG JOE'S #2,717 MONTEREY BLVD,SAN FRANCISCO,CA,94127,37.731527,-122.451665
P207004738,AFC DELI  @ Mollie Stone's #8,635 PORTOLA DR,SAN FRANCISCO,CA,94127,37.744903,-122.452418
P207004736,CHINA WOK,667 MONTEREY BLVD,SAN FRANCISCO,CA,94127,37.731536,-122.450321
P207004855,Creighton's Cheese & Fine Food Catering,673 PORTOLA DR,SAN FRANCISCO,CA,94127,37.744653,-122.452831
P207004854,King's Coffee Shop,1901 OCEAN AVE,SAN FRANCISCO,CA,94127,37.725299,-122.462352
P207004755,Round Table (Portola),737 PORTOLA DR,SAN FRANCISCO,CA,94127,37.744186,-122.453536
P205002807,MIRALOMA SUPERMARKET & TAQUERIA,755 PORTOLA DR,SAN FRANCISCO,CA,94127,37.744104,-122.453647
P207004863,Monterey Deli,499 MONTEREY BLVD,SAN FRANCISCO,CA,94127,37.731552,-122.446322
P207004745,SAFEWAY  DELI (Monterey Bl) #759,625 MONTEREY BLVD,SAN FRANCISCO,CA,94127,37.73154,-122.449541
P209006859,SUSHI SUKI RESTAURANT,360 WEST PORTAL AVE,SAN FRANCISCO,CA,94127,37.737198,-122.470013
P211007824,GREENHOUSE CAFE,329 WEST PORTAL AVE,SAN FRANCISCO,CA,94127,37.737524,-122.469593
P207004858,MOLLIE STONE'S Tower Mkt DELI (Portola Dr),635 PORTOLA DR,SAN FRANCISCO,CA,94127,37.744903,-122.452418
P211007829,WEST PORTAL TUTTIMELON,44 WEST PORTAL AVE,SAN FRANCISCO,CA,94127,37.740359,-122.466306
P205002767,SPIAZZO Ristorante Cucina Italiana,33 WEST PORTAL AVE,SAN FRANCISCO,CA,94127,37.740447,-122.466186
P209006863,KOREAN BULBOGI HOUSE,361 WEST PORTAL AVE,SAN FRANCISCO,CA,94127,37.737182,-122.469997
P210007393,CLAY OVEN (W. Portal),385 WEST PORTAL AVE,SAN FRANCISCO,CA,94127,37.736915,-122.470286
P205002809,New Tsing Tao Restaurant,811 ULLOA ST,SAN FRANCISCO,CA,94127,37.740642,-122.465191
P207004856,Railroad Expresso Cafe,705 MONTEREY BLVD,SAN FRANCISCO,CA,94127,37.731529,-122.451447
P205002772,EL TOREADOR Restaurant,50 WEST PORTAL AVE,SAN FRANCISCO,CA,94127,37.7403,-122.466365
P205002764,FRESCA PERUVIAN  Cuisine,24 WEST PORTAL AVE,SAN FRANCISCO,CA,94127,37.740554,-122.466111
P206002903,FUJI (Japanese Restaurant),301 WEST PORTAL AVE,SAN FRANCISCO,CA,94127,37.73782,-122.469234
P206002885,THE VILLAGE GRILL,160 WEST PORTAL AVE,SAN FRANCISCO,CA,94127,37.739231,-122.467626
P205002813,Bullshead Restaurant,840 ULLOA ST,SAN FRANCISCO,CA,94127,37.740808,-122.46559
P205002798,TY BISTRO,272 CLAREMONT BLVD,SAN FRANCISCO,CA,94127,37.741082,-122.464803
P205002790,Roti Indian Bistro,53 WEST PORTAL AVE,SAN FRANCISCO,CA,94127,37.740256,-122.466377
P205002761,SQUATE & GOBBLE Cafe #4 (W.Portal),1 WEST PORTAL AVE,SAN FRANCISCO,CA,94127,37.740753,-122.46588
P206002932,PARADISE PIZZA,393 WEST PORTAL AVE,SAN FRANCISCO,CA,94127,37.736819,-122.470371
P205002794,Mozzarella Di Bufala Pizzeria II,69 WEST PORTAL AVE,SAN FRANCISCO,CA,94127,37.740112,-122.466544
P207004157,Kama Sushi,1497 CHURCH ST,SAN FRANCISCO,CA,94131,37.747024,-122.426971
P207004750,SAFEWAY  Deli  (Diamond Hgts) #667,5290 DIAMOND HEIGHTS BLVD,SAN FRANCISCO,CA,94131,37.743731,-122.438053
P207004749,Yet Wah Restaurant,5238 DIAMOND HEIGHTS BLVD,SAN FRANCISCO,CA,94131,37.74421,-122.438881
P207004875,Creighton's Cafe & Bakery,5214 DIAMOND HEIGHTS BLVD,SAN FRANCISCO,CA,94131,37.744431,-122.439263
P207004874,Sweet Sue's Bakery,732 CHENERY ST,SAN FRANCISCO,CA,94131,37.734651,-122.434845
P207004871,SOTO (School Of The Arts),555 PORTOLA DR,SAN FRANCISCO,CA,94131,37.745693,-122.450929
P207004870,Clarendon Elementary School,500 CLARENDON AVE,SAN FRANCISCO,CA,94131,37.75147,-122.456663
P207004869,St John's Snack Bar,925 CHENERY ST,SAN FRANCISCO,CA,94131,37.735253,-122.437575
P207004868,Higher Grounds,691 CHENERY ST,SAN FRANCISCO,CA,94131,37.734509,-122.433582
P207004865,Glen Park Station,2816 DIAMOND ST,SAN FRANCISCO,CA,94131,37.734163,-122.433967
P207004747,Taylor's Taqueria,5214 DIAMOND HEIGHTS BLVD,SAN FRANCISCO,CA,94131,37.744431,-122.439263
P210007404,All Season Restaurant (Diamond Heights),5238 DIAMOND HEIGHTS BLVD,SAN FRANCISCO,CA,94131,37.74421,-122.438881
P207004761,Choice Yakiniku Sushi,5214 DIAMOND HEIGHTS BLVD,SAN FRANCISCO,CA,94131,37.744431,-122.439263
P207004753,AFC Sushi @ Safeway #667,5290 DIAMOND HEIGHTS BLVD,SAN FRANCISCO,CA,94131,37.743731,-122.438053
P207005065,EXTREME PIZZA,3911 ALEMANY BLVD,SAN FRANCISCO,CA,94132,37.711378,-122.467352
P208006490,Oceanview Supermarket,3911 ALEMANY BLVD,SAN FRANCISCO,CA,94132,37.711378,-122.467352
P207005041,PARK PLAZA FINE FOODS,111 CAMBON DR,SAN FRANCISCO,CA,94132,37.717101,-122.474289
P207005004,NEW MANOR RESTAURANT,2675 OCEAN AVE,SAN FRANCISCO,CA,94132,37.732205,-122.47444
P207005029,JITRA THAI CUISINE,2545 OCEAN AVE,SAN FRANCISCO,CA,94132,37.73142,-122.472712
P212008221,PAPA JOHN (Pizza),69 CAMBON DR,SAN FRANCISCO,CA,94132,37.718033,-122.47445
P207005030,HONGKONG DELIGHT,295 ORIZABA AVE,SAN FRANCISCO,CA,94132,37.714213,-122.462637
P207005021,TAIPEI RESTAURANT,2666 OCEAN AVE,SAN FRANCISCO,CA,94132,37.732197,-122.474368
P207005009,SUBWAY # 30303 (Alemany),3911 ALEMANY BLVD,SAN FRANCISCO,CA,94132,37.711378,-122.467352
P208006252,ESTIA RESTAURANT,1224 GRANT AVE,SAN FRANCISCO,CA,94133,37.798429,-122.407115
P208006164,KING OF THAI NOODLE Rest & Bar (Grant Av),1268 GRANT AVE,SAN FRANCISCO,CA,94133,37.798666,-122.407158
P204000797,THE HOUSE,1230 GRANT AVE,SAN FRANCISCO,CA,94133,37.798532,-122.407137
P204000846,STEPS OF ROME CAFFE,348 COLUMBUS AVE,SAN FRANCISCO,CA,94133,37.798291,-122.407241
P208006143,MAN KEE CAFE,670 BROADWAY,SAN FRANCISCO,CA,94133,37.797734,-122.408072
P204000765,BOCCE Cafe and Restaurant,478 GREEN ST,SAN FRANCISCO,CA,94133,37.799745,-122.40708
P204000389,My CANH Restaurant,626 BROADWAY,SAN FRANCISCO,CA,94133,37.797805,-122.407506
P209006799,Loving Hut,1365 STOCKTON ST,SAN FRANCISCO,CA,94133,37.798257,-122.408724
P209007031,VIP Coffee & Cake Shop,671 BROADWAY,SAN FRANCISCO,CA,94133,37.797718,-122.408056
P209006999,IDEALE RISTORANTE,1309 GRANT AVE,SAN FRANCISCO,CA,94133,37.798939,-122.407231
P209006995,DUPONT THAI Restaurant,1398 GRANT AVE,SAN FRANCISCO,CA,94133,37.79961,-122.407359
P209007099,CAFE PUNICCI,411 COLUMBUS AVE,SAN FRANCISCO,CA,94133,37.798853,-122.408108
P209006802,Piazza Market,627 VALLEJO ST,SAN FRANCISCO,CA,94133,37.798698,-122.40798
P210007468,SOTTO MARE Oysteria & Seafood,552 GREEN ST,SAN FRANCISCO,CA,94133,37.799593,-122.408297
P210007467,VICOLETTO,550 GREEN ST,SAN FRANCISCO,CA,94133,37.799596,-122.408271
P209006895,CAPITOL KIM TAR RESTAURANT,758 PACIFIC AVE,SAN FRANCISCO,CA,94133,37.796834,-122.407638
P204000761,AMANTE,570 GREEN ST,SAN FRANCISCO,CA,94133,37.799564,-122.40853
P208006292,DUK HING (Chinese Deli & Meat Inc.),1151 STOCKTON ST,SAN FRANCISCO,CA,94133,37.796274,-122.408324
P212008395,GREAT SAIGON,915 KEARNY ST,SAN FRANCISCO,CA,94133,37.796358,-122.405177
P204000985,"Victoria Bakery, Inc.",1362 STOCKTON ST,SAN FRANCISCO,CA,94133,37.798258,-122.408705
P204000891,Rose Pistola,532 COLUMBUS AVE,SAN FRANCISCO,CA,94133,37.799803,-122.409404
P204000852,Trattoria Pinocchio,401 COLUMBUS AVE,SAN FRANCISCO,CA,94133,37.798793,-122.408018
P204000834,The Stinking Rose,325 COLUMBUS AVE,SAN FRANCISCO,CA,94133,37.79832,-122.407323
P204000814,Panta Rei,431 COLUMBUS AVE,SAN FRANCISCO,CA,94133,37.798973,-122.408288
P204000804,MAYKADEH Restaurant,470 GREEN ST,SAN FRANCISCO,CA,94133,37.799756,-122.406989
P204000791,Giordano Brothers (Columbus),303 COLUMBUS AVE,SAN FRANCISCO,CA,94133,37.798221,-122.407179
P204000789,GINO & CARLO Bar,548 GREEN ST,SAN FRANCISCO,CA,94133,37.799616,-122.408105
P204000787,FRANCHINO RESTAURANT,347 COLUMBUS AVE,SAN FRANCISCO,CA,94133,37.798419,-122.407467
P204000776,CALZONE'S,430 COLUMBUS AVE,SAN FRANCISCO,CA,94133,37.798989,-122.408272
P204000774,CAFFE Sports,574 GREEN ST,SAN FRANCISCO,CA,94133,37.799558,-122.408582
P204000529,Seng On Market,1224 POWELL ST,SAN FRANCISCO,CA,94133,37.795768,-122.409901
P204000483,HOUSE OF DIM SUM,735 JACKSON ST,SAN FRANCISCO,CA,94133,37.795917,-122.407506
P204000446,NEW MOON Restaurant,1247 STOCKTON ST,SAN FRANCISCO,CA,94133,37.797215,-122.408528
P204000434,Kam Po Kitchen,801 BROADWAY,SAN FRANCISCO,CA,94133,37.797296,-122.410316
P204000432,Hing Lung Restaurant,674 BROADWAY,SAN FRANCISCO,CA,94133,37.797728,-122.408124
P204000423,DOL-HO Restaurant,808 PACIFIC AVE,SAN FRANCISCO,CA,94133,37.796687,-122.408778
P204000411,Vietnam Restaurant,620 BROADWAY,SAN FRANCISCO,CA,94133,37.797814,-122.407428
P204000395,PACIFIC COURT CAFE,728 PACIFIC AVE,SAN FRANCISCO,CA,94133,37.796894,-122.40713
P204000393,New Sun Hong Kong Restaurant,606 BROADWAY,SAN FRANCISCO,CA,94133,37.797837,-122.407248
P204000372,Gold Mountain Restaurant,644 BROADWAY,SAN FRANCISCO,CA,94133,37.797776,-122.407738
P204000466,Y Ben House Restaurant,835 PACIFIC AVE,SAN FRANCISCO,CA,94133,37.796642,-122.408991
P207006053,BLUE SKY,1504 POWELL ST,SAN FRANCISCO,CA,94133,37.798511,-122.410456
P208006311,PHO VUNG TAU (Kearny),915 KEARNY ST,SAN FRANCISCO,CA,94133,37.796358,-122.405177
P204000879,Mara's,503 COLUMBUS AVE,SAN FRANCISCO,CA,94133,37.799592,-122.409135
P207005924,La Boulange (Columbus),543 COLUMBUS AVE,SAN FRANCISCO,CA,94133,37.799852,-122.409515
P212008292,Trattoria Volare,561 COLUMBUS AVE,SAN FRANCISCO,CA,94133,37.799968,-122.409687
P204000880,Michelangelo Cafe,579 COLUMBUS AVE,SAN FRANCISCO,CA,94133,37.800085,-122.409858
P204000430,Happy Chinese Restaurant,1324 POWELL ST,SAN FRANCISCO,CA,94133,37.796841,-122.410118
P210007469,DELL UVA,565 GREEN ST,SAN FRANCISCO,CA,94133,37.79958,-122.40826
P211007739,Le Bordeaux,524 UNION ST,SAN FRANCISCO,CA,94133,37.800593,-122.407944
P207005925,IL POLLAIO,555 COLUMBUS AVE,SAN FRANCISCO,CA,94133,37.799929,-122.40963
P204000437,Louie's Dim Sum,1242 STOCKTON ST,SAN FRANCISCO,CA,94133,37.79721,-122.408507
P212008144,Cavalli Cafe,1441 STOCKTON ST,SAN FRANCISCO,CA,94133,37.799117,-122.408897
P212008143,Original Joe's,601 UNION ST,SAN FRANCISCO,CA,94133,37.800414,-122.409224
P207005923,CAFFE ROMA COFFEE ROASTING CO.,526 COLUMBUS AVE,SAN FRANCISCO,CA,94133,37.799764,-122.409347
P207005922,GELATERIA NAIA,520 COLUMBUS AVE,SAN FRANCISCO,CA,94133,37.799725,-122.40929
P204000950,Hong Kong Lounge (Powell),1416 POWELL ST,SAN FRANCISCO,CA,94133,37.797645,-122.410278
P204000841,Cafe Delucchi,500 COLUMBUS AVE,SAN FRANCISCO,CA,94133,37.799595,-122.4091
P204000984,Venticello Ristorante,1257 TAYLOR ST,SAN FRANCISCO,CA,94133,37.793927,-122.412937
P204000966,O'Reilly Irish Pub & Restaurant,622 GREEN ST,SAN FRANCISCO,CA,94133,37.799457,-122.409453
P204000958,Mee Mee Bakery,1328 STOCKTON ST,SAN FRANCISCO,CA,94133,37.797911,-122.408638
P204000886,Original US Restaurant,515 COLUMBUS AVE,SAN FRANCISCO,CA,94133,37.79967,-122.409249
P204000884,North Beach Restaurant,1512 STOCKTON ST,SAN FRANCISCO,CA,94133,37.799698,-122.40901
P204000877,L'Osteria Del Forno,519 COLUMBUS AVE,SAN FRANCISCO,CA,94133,37.799696,-122.409287
P204000867,Il Pollaio,555 COLUMBUS AVE,SAN FRANCISCO,CA,94133,37.799929,-122.40963
P204000840,Stella Pastry,446 COLUMBUS AVE,SAN FRANCISCO,CA,94133,37.799085,-122.408416
P204000833,Mario's Bohemian Cigar Store Store,566 COLUMBUS AVE,SAN FRANCISCO,CA,94133,37.800023,-122.409728
P204000805,Molinari Delicatessen,373 COLUMBUS AVE,SAN FRANCISCO,CA,94133,37.798535,-122.407638
P204000799,Italian French,1501 GRANT AVE,SAN FRANCISCO,CA,94133,37.800673,-122.407615
P204000790,Golden Boy Pizza,542 GREEN ST,SAN FRANCISCO,CA,94133,37.799629,-122.40801
P204000786,Fog Hill Market,1300 KEARNY ST,SAN FRANCISCO,CA,94133,37.80001,-122.405829
P204000773,Caffe Puccini,411 COLUMBUS AVE,SAN FRANCISCO,CA,94133,37.798853,-122.408108
P204000772,Caffe Greco,423 COLUMBUS AVE,SAN FRANCISCO,CA,94133,37.798925,-122.408216
P204000766,Buster's,366 COLUMBUS AVE,SAN FRANCISCO,CA,94133,37.798426,-122.407438
P204000508,Wing Sing Bakery (Stockton),1125 STOCKTON ST,SAN FRANCISCO,CA,94133,37.796089,-122.408284
P204000477,Garden Bakery,765 JACKSON ST,SAN FRANCISCO,CA,94133,37.795872,-122.407868
P204000475,DICK LEE PASTRY SHOP,716 JACKSON ST,SAN FRANCISCO,CA,94133,37.796005,-122.406892
P204000474,Delicious Dim Sum,752 JACKSON ST,SAN FRANCISCO,CA,94133,37.795924,-122.407594
P204000462,Wah Hing Market,1200 STOCKTON ST,SAN FRANCISCO,CA,94133,37.796797,-122.408416
P204000441,Mee Hong Bakery,1343 POWELL ST,SAN FRANCISCO,CA,94133,37.796999,-122.41017
P204000440,Ma's Dim Sum & Cafe,1315 POWELL ST,SAN FRANCISCO,CA,94133,37.796729,-122.410114
P204000431,Hing Lung Company (Stockton),1261 STOCKTON ST,SAN FRANCISCO,CA,94133,37.797399,-122.408564
P204000419,Broadway Dim Sum,684 BROADWAY,SAN FRANCISCO,CA,94133,37.797712,-122.408253
P204000414,Yee's Restaurant,1131 GRANT AVE,SAN FRANCISCO,CA,94133,37.79724,-122.406874
P204000390,New Asia Restaurant,772 PACIFIC AVE,SAN FRANCISCO,CA,94133,37.796802,-122.407869
P212008348,PALIO CAFE,500 PARNASSUS AVE,SAN FRANCISCO,CA,94143,37.763428,-122.458187
P212008347,PANDA EXPRESS (Parnassus Av),500 PARNASSUS AVE,SAN FRANCISCO,CA,94143,37.763428,-122.458187
P212008346,CAFE BELLINI,500 PARNASSUS AVE,SAN FRANCISCO,CA,94143,37.763428,-122.458187
P204001071,"Wells Fargo PH., Cafe",464 CALIFORNIA ST,SAN FRANCISCO,CA,94104,37.793002,-122.402131
P204000530,QUICKLY  -(Powell St),1170 POWELL ST,SAN FRANCISCO,CA,94108,37.795339,-122.409808
P207005769,San Francisco Towers (Main Kitchen),1661 PINE ST,SAN FRANCISCO,CA,94109,37.789279,-122.423148
P208006161,Ti Piacera Ristorante,1507 POLK ST,SAN FRANCISCO,CA,94109,37.790707,-122.420717
P209006663,THE CREPE HOUSE (Polk),1755 POLK ST,SAN FRANCISCO,CA,94109,37.792852,-122.421149
P207006062,QUICKLY - (Polk St),1733 POLK ST,SAN FRANCISCO,CA,94109,37.792699,-122.421119
P209006666,MILLER'S EAST COAST DELI,1725 POLK ST,SAN FRANCISCO,CA,94109,37.792643,-122.421108
P209006903,Pho Vietnam Restaurant (Polk),1406 POLK ST,SAN FRANCISCO,CA,94109,37.789793,-122.420519
P207005771,Picadilly Fish and Chips,1348 POLK ST,SAN FRANCISCO,CA,94109,37.789313,-122.420416
P203000003,Golden Horse Restaurant,1060 HYDE ST,SAN FRANCISCO,CA,94109,37.790607,-122.417309
P207005205,Wok Shop Cafe,1307 SUTTER ST,SAN FRANCISCO,CA,94109,37.787494,-122.422074
P207005946,Maharani Restaurant & Bar,1122 POST ST,SAN FRANCISCO,CA,94109,37.786781,-122.42037
P207005999,Sudachi Sushi and Bar,1217 SUTTER ST,SAN FRANCISCO,CA,94109,37.787702,-122.420478
P207005902,MODERN THAI,1247 POLK ST,SAN FRANCISCO,CA,94109,37.788359,-122.420233
P207005901,Mayes Seafood Restaurant,1233 POLK ST,SAN FRANCISCO,CA,94109,37.788286,-122.420216
P207005896,Uppibar,1160 POLK ST,SAN FRANCISCO,CA,94109,37.787505,-122.42003
P209007094,THAI THAI NOODLE (California),1400 CALIFORNIA ST,SAN FRANCISCO,CA,94109,37.790976,-122.417584
P207004758,Yama Sushi Restaurant,850 HOLLOWAY AVE,SAN FRANCISCO,CA,94112,37.721828,-122.461767
P206003061,The Dr's,4826 MISSION ST,SAN FRANCISCO,CA,94112,37.72081,-122.437776
P209006952,TEN-ICHI,2235 FILLMORE ST,SAN FRANCISCO,CA,94115,37.790166,-122.434085
P208006150,SPQR,1911 FILLMORE ST,SAN FRANCISCO,CA,94115,37.78736,-122.433515
P207004953,PLAYGROUND,1705 BUCHANAN ST,SAN FRANCISCO,CA,94115,37.785655,-122.429786
P207005085,MIYAKO RESTAURANT,1707 BUCHANAN ST,SAN FRANCISCO,CA,94115,37.78567,-122.42979
P207005088,ZAZANG RESTAURANT,2340 GEARY BLVD,SAN FRANCISCO,CA,94115,37.783072,-122.441856
P209006886,SUSHI BOOM #2,1520 FILLMORE ST,SAN FRANCISCO,CA,94115,37.78354,-122.432749
P207004944,SANPPO RESTAURANT,1702 POST ST,SAN FRANCISCO,CA,94115,37.785572,-122.429891
P209006822,Tsing Tao Restaurant - Fillmore,1117 FILLMORE ST,SAN FRANCISCO,CA,94115,37.779771,-122.431992
P206002934,TASANA THAI RESTAURANT,339 TARAVAL ST,SAN FRANCISCO,CA,94116,37.743311,-122.469592
P206002887,TARAVAL OKAZU YA,1735 TARAVAL ST,SAN FRANCISCO,CA,94116,37.742647,-122.484676
P206002945,T-28  BABY CAFE,1753 TARAVAL ST,SAN FRANCISCO,CA,94116,37.742641,-122.484822
P209007057,Ninki Sushi Bar & Restaurant,1439 TARAVAL ST,SAN FRANCISCO,CA,94116,37.742776,-122.481504
P208006293,SUSHI RAW ( Taraval St),901 TARAVAL ST,SAN FRANCISCO,CA,94116,37.743018,-122.47578
P205002747,THE BAY PASTRY,1018 TARAVAL ST,SAN FRANCISCO,CA,94116,37.742988,-122.477044
P206002939,Tonight's Soju Bar,733 TARAVAL ST,SAN FRANCISCO,CA,94116,37.743124,-122.47394
P211007641,USF Hospitality Industry Management Statler Kitchen,2130 FULTON ST,SAN FRANCISCO,CA,94117,37.775106,-122.452021
P211007640,FROMM HALL KITCHEN USF dba Bon Appetit,2130 FULTON ST,SAN FRANCISCO,CA,94117,37.775106,-122.452021
P211007639,Outtakes,2130 FULTON ST,SAN FRANCISCO,CA,94117,37.775106,-122.452021
P205002197,THAI PLACE RESTAURANT #2,312 DIVISADERO ST,SAN FRANCISCO,CA,94117,37.772408,-122.437262
P205002376,NORTH BEACH PIZZA - Stanyan,800 STANYAN ST,SAN FRANCISCO,CA,94117,37.767235,-122.453127
P205002431,SIAM LOTUS - Thai Cuisine,1705 HAIGHT ST,SAN FRANCISCO,CA,94117,37.769482,-122.450879
P205002369,MARTIN MACK'S,1568 HAIGHT ST,SAN FRANCISCO,CA,94117,37.769878,-122.448009
P205002183,PHUKET THAI RESTAURANT,248 DIVISADERO ST,SAN FRANCISCO,CA,94117,37.77121,-122.437019
P205001602,Hong Kong Lounge #2,3300 GEARY BLVD,SAN FRANCISCO,CA,94118,37.781652,-122.454296
P205001606,THAI CAFE,3407 GEARY BLVD,SAN FRANCISCO,CA,94118,37.781347,-122.455611
P205001576,MR. PIZZA GEARY,3409 GEARY BLVD,SAN FRANCISCO,CA,94118,37.781346,-122.455629
P205001603,SUSHI BOOM #1,3420 GEARY BLVD,SAN FRANCISCO,CA,94118,37.781468,-122.456048
P205001698,The RICHMOND Restaurant,615 BALBOA ST,SAN FRANCISCO,CA,94118,37.777143,-122.465306
P205001724,KAMINARI (a.k.a) Thai Noodle Jump,560 BALBOA ST,SAN FRANCISCO,CA,94118,37.777189,-122.46465
P209007089,UNCLE BOY'S,245 BALBOA ST,SAN FRANCISCO,CA,94118,37.777329,-122.461294
P208006225,SUSHI BISTRO,431 BALBOA ST,SAN FRANCISCO,CA,94118,37.777235,-122.463313
P208006355,Namu Restaurant,439 BALBOA ST,SAN FRANCISCO,CA,94118,37.777231,-122.463382
P205001712,KOREAN B.B.Q.,401 BALBOA ST,SAN FRANCISCO,CA,94118,37.777247,-122.463065
P205001709,MELISA'S CHINESE CUISINE,450 BALBOA ST,SAN FRANCISCO,CA,94118,37.777243,-122.463501
P207005743,VELO ROUGE CAFE,798 ARGUELLO BLVD,SAN FRANCISCO,CA,94118,37.775308,-122.458436
P205002513,Sunrise Deli,2115 IRVING ST,SAN FRANCISCO,CA,94122,37.763405,-122.480582
P205002501,Toon Kee,2191 IRVING ST,SAN FRANCISCO,CA,94122,37.763387,-122.481227
P205002515,Quickly - Irving,2116 IRVING ST,SAN FRANCISCO,CA,94122,37.763421,-122.480599
P205002499,MICADO  Restaurant,2126 IRVING ST,SAN FRANCISCO,CA,94122,37.763419,-122.480684
P205002497,MARNEE THAI Restaurant - (Irving/23rd Av),2225 IRVING ST,SAN FRANCISCO,CA,94122,37.763364,-122.481725
P205002510,Sawaii Ramen,2240 IRVING ST,SAN FRANCISCO,CA,94122,37.763372,-122.481879
P205002696,PPQ Vietnamese Cuisine - Irving,1816 IRVING ST,SAN FRANCISCO,CA,94122,37.763556,-122.477479
P205002547,M's CAFE,1376 09TH AVE,SAN FRANCISCO,CA,94122,37.759427,-122.485951
P205002647,San Tung Restaurant,1031 IRVING ST,SAN FRANCISCO,CA,94122,37.763935,-122.468833
P205002526,MARNEE THAI RESTAURANT - (9th Ave),1243 09TH AVE,SAN FRANCISCO,CA,94122,37.759427,-122.485951
P210007148,NEW SANDY'S CAFE & DELI,1382 09TH AVE,SAN FRANCISCO,CA,94122,37.759427,-122.485951
P205002542,CRAW STATION,1336 09TH AVE,SAN FRANCISCO,CA,94122,37.759427,-122.485951
P208006327,PERILLA (Irving St),836 IRVING ST,SAN FRANCISCO,CA,94122,37.764032,-122.466751
P205002577,PLUTO'S-Irving,627 IRVING ST,SAN FRANCISCO,CA,94122,37.764109,-122.464503
P205002580,RAIN TREE CAFE (Irving St),654 IRVING ST,SAN FRANCISCO,CA,94122,37.764116,-122.464748
P205002585,VILLA ROMANA,731 IRVING ST,SAN FRANCISCO,CA,94122,37.764065,-122.465613
P205002583,YUMMA'S MED GRILL,721 IRVING ST,SAN FRANCISCO,CA,94122,37.764069,-122.465528
P205002602,TIKKA MASALA,98 JUDAH ST,SAN FRANCISCO,CA,94122,37.762352,-122.462872
P205002529,MAY LEE'S RESTAURANT,1256 07TH AVE,SAN FRANCISCO,CA,94122,37.759427,-122.485951
P207005906,The Pizza Place  on Noriega,3901 NORIEGA ST,SAN FRANCISCO,CA,94122,37.752957,-122.505525
P207004757,TOWER BURGER,729 PORTOLA DR,SAN FRANCISCO,CA,94127,37.744223,-122.453487
P206002880,Raintree,118 WEST PORTAL AVE,SAN FRANCISCO,CA,94127,37.739531,-122.467279
P206002913,MANOR COFFEE SHOP,321A WEST PORTAL AVE,SAN FRANCISCO,CA,94127,37.737608,-122.46949
P206002899,XIAO LOONG,250 WEST PORTAL AVE,SAN FRANCISCO,CA,94127,37.738418,-122.468568
P210007137,CREEKSIDE VILLA,696 MONTEREY BLVD,SAN FRANCISCO,CA,94127,37.731549,-122.450886
P207005211,Monterey Pizza,599 MONTEREY BLVD,SAN FRANCISCO,CA,94127,37.731542,-122.448805
P207004737,Ocean Taqueria (Ocean Av),1941 OCEAN AVE,SAN FRANCISCO,CA,94127,37.725599,-122.463161
P207004760,Pho Ha Tien,1900 OCEAN AVE,SAN FRANCISCO,CA,94127,37.725317,-122.462342
P204000810,Nico's Tacos,1310 GRANT AVE,SAN FRANCISCO,CA,94133,37.798969,-122.407219
P204000872,Tony's Pizza,1570 STOCKTON ST,SAN FRANCISCO,CA,94133,37.800129,-122.409098
P204000468,Yuet Lee Restaurant,1300 STOCKTON ST,SAN FRANCISCO,CA,94133,37.797698,-122.408598
P204000807,Mo's Grill - Grant,1322 GRANT AVE,SAN FRANCISCO,CA,94133,37.799056,-122.407238
P204000806,MONA LISA Restaurant,353 COLUMBUS AVE,SAN FRANCISCO,CA,94133,37.798445,-122.407507
P208006496,Taqueria El Zorro,308 COLUMBUS AVE,SAN FRANCISCO,CA,94133,37.797974,-122.406751
P208006141,VIVA Pizza RESTAURANT,318 COLUMBUS AVE,SAN FRANCISCO,CA,94133,37.798028,-122.406837
P204000454,SUN SANG  Market,1205 STOCKTON ST,SAN FRANCISCO,CA,94133,37.796818,-122.40844
P204000463,"Wali Bakery & Cafe, Inc.",1249 STOCKTON ST,SAN FRANCISCO,CA,94133,37.797234,-122.408532
P208006335,Yummy BBQ Restaurant,683 BROADWAY,SAN FRANCISCO,CA,94133,37.797699,-122.408211
P204000467,You's Dim Sum Restaurant (Broadway St),675 BROADWAY,SAN FRANCISCO,CA,94133,37.797712,-122.408108
P204000461,V.I.P. Coffee & Cake House,671 BROADWAY,SAN FRANCISCO,CA,94133,37.797718,-122.408056
P204000406,NOODLE Bar & Grill,631 BROADWAY,SAN FRANCISCO,CA,94133,37.797782,-122.407541
P208006174,MARIO'S STEAK & CHOP HOUSE,2512 CLEMENT ST,SAN FRANCISCO,CA,94121,37.781968,-122.486167
P212008406,Orexi,243 WEST PORTAL AVE,SAN FRANCISCO,CA,94127,37.738458,-122.468487
P212008119,Park Tavern,1652 STOCKTON ST,SAN FRANCISCO,CA,94133,37.801085,-122.409291
P212008118,Cafe Divine,1600 STOCKTON ST,SAN FRANCISCO,CA,94133,37.800536,-122.40918
P211007922,Alimento,507 COLUMBUS AVE,SAN FRANCISCO,CA,94133,37.799618,-122.409173
P211007912,Colosseo Ristornate,414 COLUMBUS AVE,SAN FRANCISCO,CA,94133,37.798893,-122.408128
P212008328,Market & Rye (West Portal),68 WEST PORTAL AVE,SAN FRANCISCO,CA,94127,37.740134,-122.466553
P212008256,Whole Foods Stanyan,690 STANYAN BLVD,SAN FRANCISCO,CA,94117,37.769377,-122.453561
P211007808,La Boulange de Cole,1000 COLE ST,SAN FRANCISCO,CA,94117,37.764776,-122.449753
P211007954,Amal's Deli at New Light Market,1416 HAIGHT ST,SAN FRANCISCO,CA,94117,37.770168,-122.445728
P210007515,Ragazza,311 DIVISADERO ST,SAN FRANCISCO,CA,94115,37.772377,-122.437275
P212008223,The Ice Cream Bar,815 COLE ST,SAN FRANCISCO,CA,94117,37.766513,-122.450117
